{"type": "FeatureCollection", "features": [{"type": "Feature", "geometry": {"type": "Polygon", "coordinates": [[[121.068111, 14.634002], [121.068211, 14.633994], [121.068322, 14.633989], [121.068422, 14.633971], [121.068524, 14.633947], [121.068579, 14.633927], [121.068715, 14.633879], [121.068815, 14.633834], [121.068908, 14.633791], [121.069019, 14.633732], [121.06913, 14.633672], [121.069181, 14.63364], [121.069225, 14.633606], [121.069267, 14.633564], [121.069313, 14.633517], [121.069359, 14.633454], [121.069389, 14.633415], [121.069413, 14.633372], [121.069423, 14.633338], [121.069429, 14.6333], [121.069434, 14.633256], [121.069445, 14.633223], [121.06946, 14.633191], [121.069477, 14.633167], [121.069506, 14.633142], [121.069534, 14.63312], [121.069562, 14.633103], [121.069614, 14.633097], [121.069658, 14.633099], [121.069686, 14.633105], [121.069715, 14.63312], [121.069749, 14.633138], [121.069781, 14.633161], [121.069866, 14.632999], [121.069874, 14.632906], [121.069903, 14.632719], [121.069918, 14.632627], [121.070115, 14.632399], [121.070506, 14.631623], [121.070793, 14.631037], [121.070727, 14.631004], [121.070661, 14.630971], [121.07059, 14.630936], [121.069847, 14.63058], [121.069335, 14.63034], [121.068995, 14.630175], [121.068869, 14.630115], [121.068615, 14.62999], [121.068594, 14.630025], [121.067917, 14.631288], [121.067859, 14.631339], [121.067023, 14.631862], [121.066933, 14.631821], [121.066603, 14.632286], [121.066577, 14.632322], [121.066549, 14.632358], [121.066427, 14.632525], [121.066232, 14.632737], [121.066135, 14.632889], [121.066031, 14.633028], [121.065988, 14.633135], [121.065951, 14.633198], [121.06594, 14.633223], [121.065924, 14.633265], [121.065882, 14.633347], [121.065852, 14.633395], [121.065829, 14.633421], [121.065814, 14.633431], [121.065803, 14.633438], [121.065789, 14.633442], [121.065772, 14.633441], [121.065797, 14.633502], [121.06584, 14.633543], [121.065877, 14.633579], [121.065905, 14.633598], [121.065938, 14.633618], [121.065993, 14.633656], [121.066029, 14.63368], [121.066083, 14.633713], [121.066133, 14.633733], [121.066177, 14.633743], [121.066216, 14.633751], [121.066256, 14.633758], [121.0663, 14.633766], [121.066339, 14.633769], [121.066378, 14.633767], [121.066428, 14.633779], [121.066467, 14.633803], [121.066484, 14.633817], [121.066502, 14.633837], [121.066509, 14.633847], [121.066523, 14.633864], [121.066545, 14.633883], [121.066574, 14.633895], [121.066611, 14.633908], [121.066644, 14.633917], [121.066686, 14.633919], [121.066732, 14.633921], [121.06677, 14.633915], [121.066801, 14.633911], [121.066859, 14.633877], [121.066908, 14.633832], [121.066958, 14.633768], [121.066981, 14.633714], [121.067008, 14.633631], [121.067022, 14.633613], [121.067046, 14.633601], [121.067073, 14.633597], [121.067094, 14.633602], [121.067111, 14.633613], [121.067123, 14.633621], [121.067136, 14.633627], [121.067154, 14.633631], [121.067192, 14.633637], [121.067219, 14.633639], [121.067269, 14.633649], [121.06731, 14.633665], [121.06751, 14.633778], [121.067657, 14.633853], [121.06773, 14.633888], [121.067791, 14.633915], [121.067898, 14.633969], [121.067946, 14.633985], [121.068008, 14.634007], [121.068111, 14.634002]]]}, "properties": {"pcode": "PH1307404002", "name": "Amihan", "muni": "Quezon City", "lat": 14.632074, "lon": 121.068516}}, {"type": "Feature", "geometry": {"type": "Polygon", "coordinates": [[[121.068212, 14.641452], [121.068217, 14.641447], [121.068274, 14.641386], [121.06663, 14.639749], [121.065985, 14.639124], [121.06576, 14.638909], [121.06552, 14.638672], [121.065236, 14.638396], [121.06521, 14.638424], [121.065198, 14.638413], [121.064927, 14.638156], [121.064554, 14.637797], [121.064504, 14.637747], [121.06417, 14.637416], [121.063887, 14.63714], [121.063785, 14.637043], [121.063836, 14.636956], [121.063853, 14.636924], [121.063864, 14.636893], [121.063874, 14.636867], [121.063881, 14.63684], [121.063885, 14.636817], [121.063891, 14.636785], [121.063894, 14.636758], [121.063895, 14.636733], [121.063894, 14.63671], [121.063894, 14.636682], [121.063892, 14.636641], [121.06389, 14.636607], [121.063886, 14.636571], [121.063882, 14.63654], [121.063876, 14.636506], [121.063868, 14.63648], [121.06384, 14.63642], [121.063851, 14.636417], [121.063857, 14.636414], [121.063889, 14.636354], [121.063868, 14.636272], [121.063838, 14.63619], [121.063821, 14.636155], [121.063802, 14.636167], [121.063789, 14.63617], [121.06378, 14.636172], [121.063766, 14.63617], [121.06374, 14.636167], [121.063742, 14.636194], [121.06376, 14.63628], [121.063746, 14.636285], [121.06369, 14.63631], [121.063679, 14.636288], [121.063641, 14.636289], [121.063614, 14.636282], [121.063589, 14.636276], [121.063558, 14.63626], [121.063523, 14.636242], [121.063498, 14.636238], [121.063302, 14.636203], [121.063055, 14.636101], [121.062948, 14.636053], [121.062896, 14.636118], [121.062852, 14.63612], [121.062818, 14.63612], [121.06277, 14.636145], [121.062676, 14.636224], [121.062623, 14.636283], [121.06254, 14.636314], [121.062172, 14.636194], [121.061593, 14.636022], [121.061393, 14.635954], [121.061308, 14.636239], [121.061303, 14.636257], [121.061298, 14.636274], [121.061283, 14.636327], [121.061277, 14.636351], [121.061318, 14.636386], [121.061356, 14.63642], [121.061392, 14.636462], [121.061415, 14.636495], [121.061444, 14.636537], [121.061464, 14.636575], [121.061489, 14.636632], [121.061507, 14.636679], [121.061519, 14.636718], [121.061525, 14.636756], [121.061535, 14.636876], [121.061525, 14.637007], [121.061921, 14.637035], [121.061919, 14.637063], [121.061822, 14.638302], [121.061786, 14.638657], [121.061767, 14.639017], [121.061745, 14.639017], [121.061745, 14.639033], [121.061745, 14.639052], [121.061955, 14.639069], [121.062449, 14.639103], [121.063049, 14.639136], [121.063255, 14.639144], [121.063316, 14.639147], [121.063383, 14.639156], [121.063451, 14.639172], [121.063506, 14.639191], [121.063572, 14.639214], [121.063675, 14.63926], [121.063801, 14.639324], [121.06387, 14.63936], [121.06391, 14.639383], [121.063965, 14.639426], [121.064025, 14.639479], [121.064064, 14.639521], [121.064091, 14.639493], [121.064255, 14.639322], [121.064396, 14.639181], [121.064565, 14.638984], [121.064734, 14.638812], [121.064969, 14.638993], [121.065071, 14.639093], [121.065091, 14.639103], [121.065079, 14.63918], [121.065734, 14.639686], [121.065788, 14.63973], [121.065837, 14.639795], [121.065952, 14.639913], [121.0661, 14.640055], [121.066329, 14.640264], [121.066506, 14.640053], [121.066704, 14.64022], [121.066887, 14.6404], [121.066948, 14.640449], [121.066967, 14.640444], [121.067021, 14.64049], [121.06717, 14.640602], [121.067184, 14.64063], [121.067219, 14.64066], [121.067316, 14.640769], [121.067348, 14.640843], [121.06742, 14.640902], [121.067491, 14.640962], [121.067513, 14.640979], [121.067564, 14.640925], [121.067579, 14.64094], [121.068158, 14.641509], [121.068212, 14.641452]]]}, "properties": {"pcode": "PH1307404017", "name": "Botocan", "muni": "Quezon City", "lat": 14.638742, "lon": 121.063687}}, {"type": "Feature", "geometry": {"type": "Polygon", "coordinates": [[[121.049109, 14.654378], [121.049315, 14.654335], [121.049539, 14.654271], [121.049733, 14.654201], [121.049963, 14.654097], [121.050137, 14.654005], [121.050352, 14.653875], [121.050604, 14.653703], [121.050808, 14.653541], [121.05095, 14.653396], [121.050989, 14.653357], [121.051108, 14.65324], [121.051202, 14.653146], [121.051303, 14.653034], [121.051392, 14.652918], [121.051488, 14.652773], [121.051582, 14.652602], [121.051666, 14.652426], [121.051735, 14.65225], [121.051815, 14.652044], [121.051879, 14.651859], [121.051938, 14.651663], [121.051981, 14.651457], [121.052004, 14.651313], [121.052023, 14.651132], [121.052039, 14.650972], [121.052053, 14.650723], [121.052048, 14.650572], [121.052037, 14.65043], [121.052009, 14.650249], [121.051968, 14.650069], [121.051936, 14.64995], [121.051895, 14.649849], [121.05183, 14.649731], [121.051769, 14.649637], [121.05168, 14.649504], [121.05154, 14.649321], [121.051422, 14.64917], [121.051362, 14.649096], [121.051286, 14.649026], [121.051193, 14.64896], [121.051095, 14.648882], [121.05098, 14.648801], [121.051656, 14.647766], [121.05168, 14.647729], [121.05219, 14.647], [121.052282, 14.647061], [121.052385, 14.647127], [121.05249, 14.64721], [121.052647, 14.647341], [121.052849, 14.647516], [121.053088, 14.647162], [121.053393, 14.646684], [121.053634, 14.646299], [121.053739, 14.64614], [121.05386, 14.645939], [121.054017, 14.645654], [121.054161, 14.645383], [121.05429, 14.645138], [121.054443, 14.644827], [121.054597, 14.644496], [121.054731, 14.644199], [121.054875, 14.643851], [121.055016, 14.643477], [121.05512, 14.643152], [121.055253, 14.642718], [121.055328, 14.642422], [121.055371, 14.642239], [121.054541, 14.642046], [121.054572, 14.641932], [121.05461, 14.641755], [121.054642, 14.641599], [121.054668, 14.64148], [121.054703, 14.641313], [121.054721, 14.641224], [121.053896, 14.641064], [121.05387, 14.64106], [121.05376, 14.64117], [121.053674, 14.641265], [121.053586, 14.641359], [121.053519, 14.641433], [121.053489, 14.641476], [121.053164, 14.641394], [121.05263, 14.641262], [121.052078, 14.64112], [121.051513, 14.640987], [121.051628, 14.640385], [121.051299, 14.640321], [121.051151, 14.640297], [121.050875, 14.64026], [121.050564, 14.64022], [121.050248, 14.640219], [121.049974, 14.640215], [121.049674, 14.640229], [121.049392, 14.640251], [121.049029, 14.64031], [121.04871, 14.640366], [121.04834, 14.640447], [121.048327, 14.64045], [121.048146, 14.640488], [121.046832, 14.640761], [121.04691, 14.641088], [121.046632, 14.64123], [121.046315, 14.641401], [121.04584, 14.641653], [121.045522, 14.641828], [121.045294, 14.641967], [121.045013, 14.642154], [121.044503, 14.642503], [121.044064, 14.642829], [121.043641, 14.643162], [121.043208, 14.643507], [121.042878, 14.643801], [121.042624, 14.644027], [121.042555, 14.644089], [121.042227, 14.644426], [121.042205, 14.644451], [121.041941, 14.644719], [121.041647, 14.645055], [121.041618, 14.645087], [121.041408, 14.645336], [121.041194, 14.645596], [121.040917, 14.645966], [121.040794, 14.64617], [121.041679, 14.646717], [121.042128, 14.646993], [121.042285, 14.647088], [121.042359, 14.647133], [121.04295, 14.647501], [121.043403, 14.647806], [121.043791, 14.648067], [121.044306, 14.648386], [121.045822, 14.649312], [121.046383, 14.649642], [121.047078, 14.65007], [121.047029, 14.650129], [121.046974, 14.650211], [121.046882, 14.650388], [121.046804, 14.650563], [121.046745, 14.650706], [121.046652, 14.65101], [121.046578, 14.651341], [121.046543, 14.651558], [121.046517, 14.651785], [121.046507, 14.651923], [121.046503, 14.652035], [121.046501, 14.652261], [121.046503, 14.652341], [121.046515, 14.652444], [121.046542, 14.652588], [121.04656, 14.652682], [121.046579, 14.652757], [121.046606, 14.652847], [121.046645, 14.652975], [121.046691, 14.653112], [121.046744, 14.653227], [121.046796, 14.653321], [121.046847, 14.653401], [121.046931, 14.653518], [121.047028, 14.653628], [121.047174, 14.653797], [121.047273, 14.653889], [121.04741, 14.653992], [121.047557, 14.654077], [121.047722, 14.654155], [121.047914, 14.654232], [121.048069, 14.654284], [121.048271, 14.65434], [121.048496, 14.654379], [121.048717, 14.654392], [121.048936, 14.654396], [121.049109, 14.654378]]]}, "properties": {"pcode": "PH1307404020", "name": "Central", "muni": "Quezon City", "lat": 14.647275, "lon": 121.047293}}, {"type": "Feature", "geometry": {"type": "Polygon", "coordinates": [[[121.064776, 14.633776], [121.064851, 14.633772], [121.064925, 14.633763], [121.065017, 14.633752], [121.065108, 14.633733], [121.065152, 14.633718], [121.065197, 14.6337], [121.065245, 14.633674], [121.065336, 14.633638], [121.065407, 14.633589], [121.065452, 14.633542], [121.06558, 14.633421], [121.065589, 14.633411], [121.065625, 14.63342], [121.065699, 14.633433], [121.065772, 14.633441], [121.065789, 14.633442], [121.065803, 14.633438], [121.065814, 14.633431], [121.065829, 14.633421], [121.065852, 14.633395], [121.065882, 14.633347], [121.065924, 14.633265], [121.06594, 14.633223], [121.065951, 14.633198], [121.065988, 14.633135], [121.066031, 14.633028], [121.066135, 14.632889], [121.066232, 14.632737], [121.066427, 14.632525], [121.066549, 14.632358], [121.066577, 14.632322], [121.066416, 14.632259], [121.066345, 14.632229], [121.066267, 14.632197], [121.066205, 14.632163], [121.06613, 14.632114], [121.066001, 14.632029], [121.065897, 14.631952], [121.065833, 14.631896], [121.0658, 14.631868], [121.065721, 14.631792], [121.06565, 14.631712], [121.065575, 14.631598], [121.065547, 14.631554], [121.065531, 14.63153], [121.065499, 14.631468], [121.065459, 14.631384], [121.065366, 14.631179], [121.06529, 14.630993], [121.065274, 14.630954], [121.064735, 14.629585], [121.064722, 14.629544], [121.064264, 14.629577], [121.064219, 14.629579], [121.063712, 14.629641], [121.063298, 14.629681], [121.063254, 14.629683], [121.063225, 14.629681], [121.063198, 14.629675], [121.062992, 14.629538], [121.062837, 14.629444], [121.06272, 14.629367], [121.062628, 14.629302], [121.062528, 14.629225], [121.062465, 14.629176], [121.062239, 14.629333], [121.062277, 14.629375], [121.062296, 14.629396], [121.062333, 14.629437], [121.062368, 14.629475], [121.062416, 14.629519], [121.062449, 14.62955], [121.062502, 14.629594], [121.062572, 14.629649], [121.062622, 14.62971], [121.062698, 14.629814], [121.062735, 14.629874], [121.062772, 14.629969], [121.062792, 14.630013], [121.06282, 14.630081], [121.062836, 14.630133], [121.062848, 14.630202], [121.062875, 14.630264], [121.062901, 14.630317], [121.063012, 14.630492], [121.063177, 14.630723], [121.063239, 14.630787], [121.063305, 14.630843], [121.063415, 14.630933], [121.063475, 14.630981], [121.06354, 14.631047], [121.063583, 14.631109], [121.063604, 14.631152], [121.063656, 14.631267], [121.06369, 14.631351], [121.063694, 14.631429], [121.06369, 14.631495], [121.063684, 14.631573], [121.063691, 14.631637], [121.063708, 14.631689], [121.063738, 14.631755], [121.063773, 14.631891], [121.063788, 14.631984], [121.063786, 14.632051], [121.063765, 14.632125], [121.063703, 14.632261], [121.063696, 14.632275], [121.063653, 14.632332], [121.063615, 14.63242], [121.063609, 14.63245], [121.063606, 14.632473], [121.063607, 14.632496], [121.063609, 14.63252], [121.063617, 14.63254], [121.063627, 14.632556], [121.063637, 14.632572], [121.063678, 14.632616], [121.063702, 14.63264], [121.063732, 14.632672], [121.063768, 14.632698], [121.063806, 14.632715], [121.063838, 14.632733], [121.063891, 14.632762], [121.063977, 14.63283], [121.064031, 14.6329], [121.064072, 14.63295], [121.064113, 14.633007], [121.064158, 14.633073], [121.06419, 14.633132], [121.064217, 14.633188], [121.064232, 14.633229], [121.064247, 14.63329], [121.06425, 14.633366], [121.064256, 14.633479], [121.064251, 14.633571], [121.06425, 14.633607], [121.064253, 14.63363], [121.064257, 14.633649], [121.06427, 14.633677], [121.064289, 14.633698], [121.064307, 14.633712], [121.064328, 14.633726], [121.064365, 14.633736], [121.064415, 14.633748], [121.064466, 14.633763], [121.064493, 14.633769], [121.064528, 14.633769], [121.064599, 14.633773], [121.064697, 14.63378], [121.064776, 14.633776]]]}, "properties": {"pcode": "PH1307404021", "name": "Claro", "muni": "Quezon City", "lat": 14.631481, "lon": 121.064598}}, {"type": "Feature", "geometry": {"type": "Polygon", "coordinates": [[[121.066603, 14.632286], [121.066933, 14.631821], [121.067023, 14.631862], [121.067859, 14.631339], [121.067917, 14.631288], [121.068594, 14.630025], [121.068615, 14.62999], [121.068869, 14.630115], [121.068995, 14.630175], [121.069335, 14.63034], [121.069847, 14.63058], [121.07059, 14.630936], [121.070661, 14.630971], [121.070699, 14.630972], [121.070723, 14.630967], [121.070741, 14.63096], [121.070762, 14.63094], [121.070779, 14.630921], [121.071152, 14.630208], [121.070518, 14.6299], [121.069406, 14.629369], [121.069365, 14.629348], [121.069335, 14.629334], [121.068444, 14.628926], [121.067987, 14.628715], [121.067633, 14.628557], [121.067407, 14.628473], [121.067181, 14.6284], [121.06697, 14.628347], [121.066784, 14.628307], [121.06653, 14.628263], [121.065938, 14.628162], [121.065236, 14.628049], [121.065074, 14.628916], [121.064763, 14.628863], [121.064745, 14.628943], [121.064717, 14.629074], [121.064702, 14.629185], [121.064697, 14.629319], [121.064707, 14.629434], [121.064715, 14.629511], [121.064722, 14.629544], [121.064735, 14.629585], [121.065274, 14.630954], [121.06529, 14.630993], [121.065366, 14.631179], [121.065459, 14.631384], [121.065499, 14.631468], [121.065531, 14.63153], [121.065547, 14.631554], [121.065575, 14.631598], [121.06565, 14.631712], [121.065721, 14.631792], [121.0658, 14.631868], [121.065833, 14.631896], [121.065897, 14.631952], [121.066001, 14.632029], [121.06613, 14.632114], [121.066205, 14.632163], [121.066267, 14.632197], [121.066345, 14.632229], [121.066416, 14.632259], [121.066577, 14.632322], [121.066603, 14.632286]]]}, "properties": {"pcode": "PH1307404034", "name": "Duyan-duyan", "muni": "Quezon City", "lat": 14.630191, "lon": 121.066739}}, {"type": "Feature", "geometry": {"type": "Polygon", "coordinates": [[[121.06117, 14.635097], [121.061191, 14.635091], [121.061207, 14.635082], [121.061229, 14.635065], [121.061369, 14.634926], [121.061337, 14.634893], [121.060885, 14.634454], [121.060771, 14.634346], [121.060524, 14.634114], [121.060506, 14.634132], [121.060441, 14.634067], [121.060457, 14.634051], [121.059738, 14.633362], [121.059468, 14.633103], [121.05943, 14.633067], [121.059387, 14.633025], [121.059091, 14.632734], [121.059121, 14.632695], [121.05907, 14.632645], [121.05903, 14.632672], [121.058262, 14.631919], [121.058008, 14.631678], [121.058072, 14.631607], [121.057969, 14.631501], [121.05792, 14.631552], [121.057743, 14.631373], [121.057766, 14.631343], [121.057668, 14.631247], [121.057654, 14.63123], [121.057633, 14.631213], [121.057676, 14.631172], [121.057546, 14.631048], [121.057459, 14.631137], [121.057287, 14.630994], [121.057065, 14.63077], [121.057151, 14.63069], [121.057027, 14.63057], [121.056987, 14.630612], [121.056725, 14.630364], [121.056767, 14.630316], [121.056561, 14.630105], [121.056458, 14.630192], [121.056419, 14.630153], [121.056065, 14.629799], [121.056126, 14.629723], [121.055935, 14.629482], [121.055869, 14.629417], [121.055821, 14.629369], [121.055899, 14.629225], [121.055826, 14.6292], [121.055705, 14.629154], [121.055608, 14.62909], [121.055527, 14.629062], [121.055475, 14.629038], [121.055393, 14.628996], [121.055347, 14.628978], [121.055275, 14.628968], [121.055216, 14.628981], [121.055147, 14.629009], [121.055116, 14.629024], [121.055053, 14.629066], [121.054979, 14.629128], [121.054952, 14.629152], [121.054934, 14.629187], [121.0549, 14.629241], [121.054866, 14.629303], [121.054821, 14.629408], [121.054778, 14.629516], [121.054762, 14.629577], [121.054757, 14.629623], [121.054762, 14.629671], [121.05478, 14.629719], [121.054823, 14.629793], [121.054857, 14.629837], [121.054871, 14.629863], [121.054894, 14.629908], [121.05492, 14.629968], [121.054935, 14.630013], [121.054947, 14.630054], [121.054947, 14.630075], [121.054939, 14.630104], [121.054932, 14.630127], [121.05492, 14.63015], [121.054906, 14.630172], [121.054848, 14.630232], [121.054591, 14.630419], [121.054361, 14.630572], [121.054269, 14.630605], [121.054221, 14.630617], [121.054187, 14.630626], [121.054139, 14.630627], [121.054099, 14.630623], [121.054061, 14.630616], [121.054031, 14.630609], [121.053961, 14.630576], [121.053908, 14.630547], [121.053849, 14.630516], [121.053784, 14.630473], [121.053731, 14.630432], [121.053698, 14.630397], [121.053671, 14.630349], [121.053639, 14.630289], [121.053623, 14.630252], [121.05361, 14.630229], [121.053589, 14.630209], [121.053569, 14.630193], [121.053528, 14.630174], [121.053488, 14.630169], [121.053457, 14.630169], [121.053407, 14.630169], [121.053285, 14.630168], [121.053241, 14.630174], [121.053203, 14.630185], [121.053159, 14.630208], [121.053118, 14.630234], [121.052981, 14.630349], [121.052953, 14.630369], [121.05289, 14.6304], [121.052847, 14.630412], [121.052819, 14.630417], [121.052794, 14.630417], [121.052767, 14.630411], [121.052737, 14.6304], [121.052719, 14.630459], [121.052646, 14.630687], [121.052639, 14.630708], [121.05251, 14.631132], [121.052381, 14.631559], [121.052248, 14.631998], [121.052091, 14.63251], [121.054372, 14.633163], [121.055513, 14.633498], [121.056592, 14.633817], [121.057234, 14.633997], [121.05886, 14.634473], [121.061, 14.635086], [121.061046, 14.635096], [121.061092, 14.635102], [121.061132, 14.635103], [121.06117, 14.635097]]]}, "properties": {"pcode": "PH1307404036", "name": "East Kamias", "muni": "Quezon City", "lat": 14.632254, "lon": 121.055387}}, {"type": "Feature", "geometry": {"type": "Polygon", "coordinates": [[[121.064154, 14.647668], [121.064189, 14.647664], [121.06423, 14.647659], [121.064279, 14.647652], [121.064364, 14.647634], [121.064448, 14.647625], [121.064663, 14.647638], [121.064662, 14.647606], [121.064636, 14.646911], [121.06463, 14.646687], [121.064617, 14.646299], [121.06459, 14.645618], [121.064575, 14.645098], [121.064536, 14.644489], [121.064529, 14.644382], [121.064505, 14.643846], [121.064497, 14.643797], [121.064492, 14.64377], [121.064478, 14.643724], [121.064467, 14.643686], [121.064452, 14.643639], [121.06443, 14.643594], [121.064408, 14.64356], [121.064382, 14.643524], [121.064344, 14.643483], [121.064301, 14.643436], [121.064238, 14.643381], [121.064147, 14.643315], [121.063708, 14.642999], [121.063074, 14.642543], [121.06306, 14.642534], [121.062644, 14.642234], [121.062816, 14.641945], [121.062955, 14.641713], [121.063015, 14.641625], [121.063128, 14.641458], [121.063334, 14.641195], [121.063396, 14.641102], [121.063419, 14.641061], [121.06343, 14.641029], [121.063434, 14.641005], [121.063433, 14.640978], [121.063431, 14.640943], [121.06342, 14.640904], [121.063411, 14.640874], [121.063389, 14.640836], [121.063372, 14.64082], [121.06332, 14.640786], [121.063255, 14.640761], [121.063231, 14.640752], [121.063207, 14.640746], [121.062321, 14.640497], [121.062344, 14.640191], [121.062449, 14.639103], [121.061955, 14.639069], [121.061745, 14.639052], [121.061743, 14.639082], [121.061699, 14.639939], [121.061681, 14.640422], [121.061654, 14.640606], [121.061629, 14.640784], [121.061611, 14.641041], [121.061612, 14.641167], [121.061612, 14.641189], [121.061612, 14.641209], [121.061582, 14.641671], [121.061575, 14.641735], [121.061525, 14.642348], [121.061557, 14.64238], [121.061559, 14.642397], [121.061552, 14.642442], [121.061513, 14.642476], [121.061482, 14.642904], [121.06137, 14.644011], [121.061355, 14.644224], [121.061354, 14.64424], [121.061353, 14.644257], [121.061349, 14.644276], [121.061326, 14.644454], [121.061318, 14.64461], [121.061311, 14.644667], [121.061294, 14.644829], [121.061284, 14.644933], [121.061273, 14.645024], [121.06126, 14.645281], [121.061244, 14.645478], [121.061194, 14.646137], [121.061183, 14.646304], [121.061178, 14.646372], [121.061151, 14.646772], [121.06115, 14.646795], [121.061149, 14.646815], [121.06115, 14.646831], [121.061141, 14.647014], [121.06114, 14.647065], [121.061278, 14.647073], [121.061393, 14.647083], [121.061525, 14.6471], [121.061671, 14.647125], [121.06183, 14.64716], [121.061948, 14.647191], [121.062044, 14.647215], [121.062166, 14.64725], [121.062323, 14.647293], [121.062663, 14.647376], [121.063258, 14.647537], [121.063443, 14.647586], [121.06355, 14.647611], [121.063659, 14.647631], [121.063774, 14.647648], [121.06386, 14.647658], [121.063942, 14.647665], [121.064043, 14.647669], [121.064093, 14.647669], [121.064154, 14.647668]]]}, "properties": {"pcode": "PH1307404051", "name": "Krus Na Ligas", "muni": "Quezon City", "lat": 14.643348, "lon": 121.062815}}, {"type": "Feature", "geometry": {"type": "Polygon", "coordinates": [[[121.074389, 14.646325], [121.07509, 14.64623], [121.075427, 14.646174], [121.075719, 14.646144], [121.075908, 14.646115], [121.076056, 14.646095], [121.076146, 14.646077], [121.076243, 14.646048], [121.07633, 14.646012], [121.076429, 14.645958], [121.076517, 14.645893], [121.076652, 14.645794], [121.076776, 14.645682], [121.077, 14.645446], [121.077164, 14.645282], [121.077241, 14.645214], [121.077324, 14.645156], [121.077423, 14.645088], [121.077504, 14.645045], [121.077578, 14.645014], [121.077677, 14.644974], [121.077759, 14.644951], [121.077865, 14.644927], [121.077997, 14.644911], [121.078095, 14.644911], [121.07821, 14.644917], [121.078315, 14.644929], [121.078423, 14.644951], [121.078508, 14.644978], [121.078607, 14.645016], [121.078694, 14.645055], [121.078789, 14.64511], [121.078867, 14.645162], [121.078942, 14.645223], [121.079056, 14.645327], [121.079284, 14.645593], [121.079487, 14.645848], [121.079686, 14.646075], [121.079929, 14.64634], [121.080196, 14.646625], [121.080316, 14.646753], [121.080379, 14.646816], [121.080441, 14.646859], [121.080504, 14.646895], [121.080585, 14.646929], [121.080689, 14.646965], [121.080772, 14.646991], [121.080947, 14.647028], [121.08105, 14.647048], [121.081147, 14.647068], [121.081205, 14.647077], [121.081241, 14.647081], [121.081268, 14.647074], [121.08182, 14.646747], [121.081993, 14.646647], [121.082144, 14.646539], [121.082344, 14.646364], [121.082502, 14.646253], [121.082633, 14.646174], [121.082679, 14.646146], [121.082725, 14.646136], [121.082815, 14.646131], [121.082843, 14.646084], [121.082864, 14.646047], [121.082965, 14.645727], [121.083037, 14.645466], [121.083114, 14.645225], [121.083168, 14.644989], [121.083192, 14.644805], [121.083228, 14.644535], [121.083252, 14.644285], [121.083289, 14.64388], [121.08331, 14.64366], [121.083152, 14.64324], [121.08301, 14.643063], [121.082788, 14.642827], [121.082571, 14.642606], [121.082226, 14.642169], [121.082213, 14.642105], [121.082318, 14.641747], [121.082384, 14.641583], [121.082508, 14.641328], [121.082329, 14.641031], [121.082321, 14.640911], [121.082312, 14.640838], [121.082278, 14.640697], [121.082057, 14.640088], [121.08201, 14.640011], [121.081848, 14.639918], [121.081753, 14.639749], [121.081531, 14.639469], [121.081529, 14.639123], [121.080997, 14.638737], [121.080018, 14.637886], [121.079892, 14.637883], [121.079768, 14.637864], [121.079286, 14.637034], [121.079047, 14.636472], [121.078808, 14.636296], [121.077261, 14.63516], [121.077266, 14.634906], [121.077271, 14.634561], [121.077272, 14.634521], [121.077626, 14.634513], [121.077607, 14.634135], [121.077237, 14.633811], [121.077294, 14.633737], [121.077281, 14.633007], [121.077102, 14.633002], [121.077331, 14.632657], [121.077321, 14.632585], [121.077266, 14.632442], [121.077212, 14.632302], [121.0772, 14.632274], [121.077175, 14.632211], [121.077238, 14.632114], [121.077546, 14.63164], [121.077557, 14.631606], [121.077552, 14.631555], [121.077495, 14.631285], [121.077447, 14.631053], [121.077404, 14.630914], [121.077154, 14.630272], [121.077013, 14.629992], [121.076981, 14.629859], [121.076905, 14.629546], [121.076802, 14.629493], [121.07627, 14.629216], [121.075844, 14.628993], [121.075808, 14.628981], [121.07573, 14.628956], [121.075446, 14.628873], [121.074888, 14.628681], [121.074518, 14.628581], [121.074406, 14.628551], [121.074397, 14.62848], [121.074173, 14.628471], [121.074004, 14.628483], [121.07397, 14.628483], [121.07387, 14.628471], [121.073649, 14.628441], [121.073417, 14.628436], [121.073203, 14.628427], [121.073013, 14.62844], [121.072971, 14.628445], [121.072763, 14.628468], [121.072673, 14.628481], [121.072625, 14.628481], [121.072374, 14.628506], [121.072343, 14.628508], [121.072248, 14.628507], [121.071891, 14.62832], [121.071901, 14.628288], [121.071649, 14.628199], [121.071624, 14.628186], [121.071443, 14.628464], [121.071223, 14.628792], [121.07118, 14.62886], [121.070969, 14.629181], [121.070901, 14.629287], [121.070518, 14.6299], [121.071152, 14.630208], [121.070779, 14.630921], [121.070762, 14.63094], [121.070741, 14.63096], [121.070723, 14.630967], [121.070699, 14.630972], [121.070661, 14.630971], [121.070727, 14.631004], [121.070793, 14.631037], [121.070506, 14.631623], [121.070115, 14.632399], [121.069918, 14.632627], [121.069903, 14.632719], [121.069874, 14.632906], [121.069866, 14.632999], [121.069781, 14.633161], [121.069749, 14.633138], [121.069715, 14.63312], [121.069686, 14.633105], [121.069658, 14.633099], [121.069614, 14.633097], [121.069562, 14.633103], [121.069534, 14.63312], [121.069506, 14.633142], [121.069477, 14.633167], [121.06946, 14.633191], [121.069445, 14.633223], [121.069434, 14.633256], [121.069429, 14.6333], [121.069423, 14.633338], [121.069413, 14.633372], [121.069389, 14.633415], [121.069359, 14.633454], [121.069313, 14.633517], [121.069267, 14.633564], [121.069225, 14.633606], [121.069181, 14.63364], [121.06913, 14.633672], [121.069019, 14.633732], [121.068908, 14.633791], [121.068815, 14.633834], [121.068715, 14.633879], [121.068579, 14.633927], [121.068524, 14.633947], [121.068422, 14.633971], [121.068322, 14.633989], [121.068211, 14.633994], [121.068111, 14.634002], [121.068008, 14.634007], [121.067946, 14.633985], [121.067898, 14.633969], [121.067791, 14.633915], [121.06773, 14.633888], [121.067657, 14.633853], [121.06751, 14.633778], [121.06731, 14.633665], [121.067269, 14.633649], [121.067219, 14.633639], [121.067192, 14.633637], [121.067154, 14.633631], [121.067136, 14.633627], [121.067123, 14.633621], [121.067111, 14.633613], [121.067094, 14.633602], [121.067073, 14.633597], [121.067046, 14.633601], [121.067022, 14.633613], [121.067008, 14.633631], [121.066981, 14.633714], [121.066958, 14.633768], [121.066908, 14.633832], [121.066859, 14.633877], [121.066801, 14.633911], [121.06677, 14.633915], [121.066732, 14.633921], [121.066686, 14.633919], [121.066644, 14.633917], [121.066611, 14.633908], [121.066574, 14.633895], [121.066545, 14.633883], [121.066523, 14.633864], [121.066509, 14.633847], [121.066502, 14.633837], [121.066484, 14.633817], [121.066467, 14.633803], [121.066428, 14.633779], [121.066378, 14.633767], [121.066339, 14.633769], [121.0663, 14.633766], [121.066256, 14.633758], [121.066216, 14.633751], [121.066177, 14.633743], [121.066133, 14.633733], [121.066083, 14.633713], [121.066029, 14.63368], [121.065993, 14.633656], [121.065938, 14.633618], [121.065905, 14.633598], [121.065877, 14.633579], [121.06584, 14.633543], [121.065797, 14.633502], [121.065772, 14.633441], [121.065699, 14.633433], [121.065625, 14.63342], [121.065589, 14.633411], [121.06558, 14.633421], [121.065452, 14.633542], [121.065407, 14.633589], [121.065336, 14.633638], [121.065245, 14.633674], [121.065197, 14.6337], [121.065152, 14.633718], [121.065108, 14.633733], [121.065017, 14.633752], [121.064925, 14.633763], [121.064851, 14.633772], [121.064776, 14.633776], [121.064697, 14.63378], [121.064599, 14.633773], [121.064528, 14.633769], [121.064493, 14.633769], [121.064491, 14.633787], [121.064438, 14.63401], [121.064398, 14.634191], [121.064329, 14.634486], [121.064252, 14.63482], [121.064153, 14.635262], [121.064087, 14.635594], [121.064061, 14.635694], [121.064047, 14.635735], [121.064036, 14.635771], [121.06402, 14.635834], [121.063931, 14.636285], [121.063868, 14.636272], [121.063889, 14.636354], [121.063857, 14.636414], [121.063851, 14.636417], [121.06384, 14.63642], [121.063868, 14.63648], [121.063876, 14.636506], [121.063882, 14.63654], [121.063886, 14.636571], [121.06389, 14.636607], [121.063892, 14.636641], [121.063894, 14.636682], [121.063894, 14.63671], [121.063895, 14.636733], [121.063894, 14.636758], [121.063891, 14.636785], [121.063885, 14.636817], [121.063881, 14.63684], [121.063874, 14.636867], [121.063864, 14.636893], [121.063853, 14.636924], [121.063836, 14.636956], [121.063785, 14.637043], [121.063887, 14.63714], [121.06417, 14.637416], [121.064504, 14.637747], [121.064554, 14.637797], [121.064927, 14.638156], [121.065198, 14.638413], [121.06521, 14.638424], [121.065236, 14.638396], [121.06552, 14.638672], [121.06576, 14.638909], [121.065985, 14.639124], [121.06663, 14.639749], [121.068274, 14.641386], [121.068217, 14.641447], [121.068212, 14.641452], [121.068476, 14.641687], [121.06853, 14.641632], [121.068703, 14.641753], [121.069713, 14.642764], [121.070203, 14.643249], [121.070673, 14.643671], [121.070928, 14.643909], [121.071138, 14.644124], [121.071033, 14.64422], [121.071065, 14.644252], [121.071085, 14.644267], [121.071214, 14.64435], [121.071264, 14.644399], [121.071507, 14.644624], [121.071909, 14.645026], [121.072131, 14.645243], [121.072652, 14.645745], [121.072748, 14.645841], [121.073074, 14.646155], [121.073404, 14.646461], [121.073572, 14.646619], [121.07359, 14.646635], [121.073794, 14.646801], [121.0739, 14.646881], [121.073967, 14.646946], [121.073995, 14.646978], [121.07402, 14.647007], [121.074043, 14.647023], [121.074194, 14.647099], [121.074352, 14.647206], [121.074389, 14.646325]]]}, "properties": {"pcode": "PH1307404055", "name": "Loyola Heights", "muni": "Quezon City", "lat": 14.637581, "lon": 121.07197}}, {"type": "Feature", "geometry": {"type": "Polygon", "coordinates": [[[121.05641, 14.639098], [121.056409, 14.638919], [121.056412, 14.638667], [121.056408, 14.63851], [121.0564, 14.638326], [121.056388, 14.638103], [121.056377, 14.637911], [121.056366, 14.637728], [121.05634, 14.637398], [121.056311, 14.637179], [121.05628, 14.636942], [121.056258, 14.636786], [121.056228, 14.63661], [121.056201, 14.636466], [121.056167, 14.636277], [121.056119, 14.636018], [121.056096, 14.635899], [121.056086, 14.635857], [121.056072, 14.635809], [121.056012, 14.635668], [121.056096, 14.635603], [121.056142, 14.635566], [121.056203, 14.635517], [121.056251, 14.635481], [121.056301, 14.635445], [121.056369, 14.6354], [121.056433, 14.635368], [121.056517, 14.635328], [121.056621, 14.635288], [121.056723, 14.635252], [121.056805, 14.635227], [121.056844, 14.635217], [121.05686, 14.635171], [121.057001, 14.634709], [121.057217, 14.634053], [121.057234, 14.633997], [121.056592, 14.633817], [121.055513, 14.633498], [121.054372, 14.633163], [121.054234, 14.633643], [121.054217, 14.633729], [121.054204, 14.633813], [121.054197, 14.633893], [121.054191, 14.63397], [121.054193, 14.634035], [121.054195, 14.634115], [121.054204, 14.634207], [121.054221, 14.634328], [121.054238, 14.634423], [121.054279, 14.634601], [121.054339, 14.634884], [121.054531, 14.635676], [121.054617, 14.636053], [121.054632, 14.636128], [121.054656, 14.636249], [121.054777, 14.636951], [121.05482, 14.63722], [121.054852, 14.637485], [121.054859, 14.637538], [121.054897, 14.637888], [121.054917, 14.638183], [121.05493, 14.638476], [121.054932, 14.638857], [121.054928, 14.639089], [121.054919, 14.639301], [121.055763, 14.639332], [121.056406, 14.639348], [121.05641, 14.639098]]]}, "properties": {"pcode": "PH1307404057", "name": "Malaya", "muni": "Quezon City", "lat": 14.636263, "lon": 121.055412}}, {"type": "Feature", "geometry": {"type": "Polygon", "coordinates": [[[121.052833, 14.653343], [121.052947, 14.653253], [121.053039, 14.653197], [121.053105, 14.653164], [121.05316, 14.65314], [121.053216, 14.653116], [121.053245, 14.653104], [121.053294, 14.653081], [121.05334, 14.65306], [121.053373, 14.653035], [121.053396, 14.653005], [121.053446, 14.652879], [121.053498, 14.65277], [121.053546, 14.652606], [121.053545, 14.652579], [121.053544, 14.652557], [121.053544, 14.652538], [121.053552, 14.652491], [121.053632, 14.652277], [121.053694, 14.652189], [121.053743, 14.652196], [121.054035, 14.652457], [121.054059, 14.652471], [121.054085, 14.652478], [121.054175, 14.652484], [121.054245, 14.652469], [121.054597, 14.652319], [121.055086, 14.652477], [121.055133, 14.652488], [121.055177, 14.652392], [121.055147, 14.652384], [121.05513, 14.652378], [121.055117, 14.651992], [121.055107, 14.651667], [121.055105, 14.65163], [121.055055, 14.651636], [121.054964, 14.651647], [121.054836, 14.651659], [121.054699, 14.651674], [121.054585, 14.65168], [121.054483, 14.651685], [121.0544, 14.65169], [121.054327, 14.651694], [121.054248, 14.651694], [121.054181, 14.65169], [121.054054, 14.651681], [121.053884, 14.651659], [121.053827, 14.651652], [121.053711, 14.651638], [121.053544, 14.651614], [121.053573, 14.651356], [121.053604, 14.650951], [121.053612, 14.650653], [121.053595, 14.650334], [121.053578, 14.650111], [121.054204, 14.650055], [121.054182, 14.649918], [121.054132, 14.6497], [121.054078, 14.649525], [121.054027, 14.649368], [121.053963, 14.6492], [121.053896, 14.649032], [121.053815, 14.648842], [121.053716, 14.648621], [121.053641, 14.648486], [121.053568, 14.648372], [121.05348, 14.648241], [121.053406, 14.648128], [121.053299, 14.647978], [121.05322, 14.647875], [121.053106, 14.647749], [121.053009, 14.647655], [121.052849, 14.647516], [121.052647, 14.647341], [121.05249, 14.64721], [121.052385, 14.647127], [121.052282, 14.647061], [121.05219, 14.647], [121.05168, 14.647729], [121.051656, 14.647766], [121.05098, 14.648801], [121.051095, 14.648882], [121.051193, 14.64896], [121.051286, 14.649026], [121.051362, 14.649096], [121.051422, 14.64917], [121.05154, 14.649321], [121.05168, 14.649504], [121.051769, 14.649637], [121.05183, 14.649731], [121.051895, 14.649849], [121.051936, 14.64995], [121.051968, 14.650069], [121.052009, 14.650249], [121.052037, 14.65043], [121.052048, 14.650572], [121.052053, 14.650723], [121.052039, 14.650972], [121.052023, 14.651132], [121.052004, 14.651313], [121.051981, 14.651457], [121.051938, 14.651663], [121.051879, 14.651859], [121.051815, 14.652044], [121.051735, 14.65225], [121.051666, 14.652426], [121.051582, 14.652602], [121.051488, 14.652773], [121.05159, 14.652844], [121.052484, 14.6534], [121.05265, 14.653504], [121.052833, 14.653343]]]}, "properties": {"pcode": "PH1307404072", "name": "Old Capitol Site", "muni": "Quezon City", "lat": 14.650291, "lon": 121.052804}}, {"type": "Feature", "geometry": {"type": "Polygon", "coordinates": [[[121.040917, 14.645966], [121.041194, 14.645596], [121.041408, 14.645336], [121.041618, 14.645087], [121.041647, 14.645055], [121.041941, 14.644719], [121.042205, 14.644451], [121.042227, 14.644426], [121.042555, 14.644089], [121.042624, 14.644027], [121.042878, 14.643801], [121.043208, 14.643507], [121.043641, 14.643162], [121.044064, 14.642829], [121.044503, 14.642503], [121.045013, 14.642154], [121.045294, 14.641967], [121.045522, 14.641828], [121.04584, 14.641653], [121.046315, 14.641401], [121.046632, 14.64123], [121.04691, 14.641088], [121.046832, 14.640761], [121.048146, 14.640488], [121.048327, 14.64045], [121.04834, 14.640447], [121.04871, 14.640366], [121.049029, 14.64031], [121.049392, 14.640251], [121.049674, 14.640229], [121.049974, 14.640215], [121.050248, 14.640219], [121.050564, 14.64022], [121.050875, 14.64026], [121.051151, 14.640297], [121.051299, 14.640321], [121.051628, 14.640385], [121.051513, 14.640987], [121.052078, 14.64112], [121.05263, 14.641262], [121.053164, 14.641394], [121.053489, 14.641476], [121.053519, 14.641433], [121.053586, 14.641359], [121.053674, 14.641265], [121.05376, 14.64117], [121.05387, 14.64106], [121.053896, 14.641064], [121.054721, 14.641224], [121.054762, 14.640935], [121.054807, 14.640636], [121.05485, 14.640278], [121.05488, 14.640033], [121.054899, 14.63974], [121.054919, 14.639301], [121.054928, 14.639089], [121.054932, 14.638857], [121.05493, 14.638476], [121.054917, 14.638183], [121.054897, 14.637888], [121.054859, 14.637538], [121.054852, 14.637485], [121.05482, 14.63722], [121.054777, 14.636951], [121.054656, 14.636249], [121.054632, 14.636128], [121.054617, 14.636053], [121.054531, 14.635676], [121.054339, 14.634884], [121.054279, 14.634601], [121.054238, 14.634423], [121.054221, 14.634328], [121.054204, 14.634207], [121.054195, 14.634115], [121.054193, 14.634035], [121.054191, 14.63397], [121.054197, 14.633893], [121.054204, 14.633813], [121.054217, 14.633729], [121.054234, 14.633643], [121.054372, 14.633163], [121.052091, 14.63251], [121.049827, 14.631864], [121.049815, 14.63186], [121.047358, 14.631158], [121.046645, 14.630953], [121.046614, 14.630944], [121.045883, 14.630735], [121.045737, 14.631043], [121.045442, 14.631707], [121.04518, 14.632296], [121.045026, 14.632627], [121.044991, 14.632692], [121.044956, 14.632744], [121.044746, 14.633068], [121.043695, 14.634681], [121.043406, 14.635141], [121.042867, 14.63593], [121.042086, 14.637148], [121.042047, 14.637207], [121.041325, 14.638332], [121.04047, 14.639636], [121.039244, 14.641514], [121.038818, 14.642178], [121.038393, 14.642838], [121.038197, 14.64313], [121.037512, 14.644171], [121.040794, 14.64617], [121.040917, 14.645966]]]}, "properties": {"pcode": "PH1307404082", "name": "Pinyahan", "muni": "Quezon City", "lat": 14.638404, "lon": 121.048102}}, {"type": "Feature", "geometry": {"type": "Polygon", "coordinates": [[[121.059718, 14.632802], [121.060085, 14.632448], [121.060223, 14.632318], [121.060312, 14.63222], [121.060455, 14.632066], [121.060532, 14.631981], [121.060568, 14.631931], [121.060642, 14.631812], [121.060695, 14.631716], [121.06073, 14.631652], [121.060757, 14.631603], [121.060942, 14.631245], [121.060974, 14.631184], [121.060983, 14.631164], [121.061194, 14.630758], [121.061205, 14.630736], [121.061414, 14.63034], [121.061436, 14.630303], [121.061574, 14.630055], [121.061647, 14.629926], [121.061657, 14.629905], [121.061728, 14.629795], [121.061784, 14.629713], [121.061837, 14.629646], [121.061886, 14.629593], [121.06191, 14.629571], [121.061952, 14.629538], [121.062019, 14.629483], [121.062106, 14.629421], [121.062239, 14.629333], [121.062177, 14.62924], [121.061933, 14.628926], [121.061917, 14.628937], [121.061889, 14.628954], [121.06186, 14.628969], [121.061787, 14.629004], [121.061739, 14.629027], [121.06167, 14.629072], [121.061563, 14.629153], [121.061473, 14.629223], [121.061401, 14.629268], [121.061351, 14.629292], [121.061321, 14.6293], [121.061292, 14.629306], [121.061251, 14.629305], [121.061174, 14.6293], [121.061049, 14.629299], [121.060965, 14.629303], [121.060904, 14.629319], [121.060821, 14.629349], [121.06073, 14.62938], [121.060676, 14.629399], [121.06061, 14.629405], [121.060538, 14.6294], [121.060428, 14.62938], [121.060349, 14.629351], [121.060214, 14.62928], [121.060109, 14.62922], [121.059987, 14.629148], [121.059887, 14.629087], [121.059846, 14.629054], [121.059788, 14.629005], [121.059741, 14.62898], [121.059699, 14.628959], [121.059645, 14.628941], [121.059599, 14.628927], [121.059549, 14.628911], [121.059495, 14.628895], [121.059443, 14.62888], [121.059375, 14.628859], [121.05932, 14.628838], [121.059268, 14.628818], [121.059216, 14.628792], [121.05916, 14.628766], [121.059063, 14.628726], [121.059022, 14.628722], [121.058979, 14.628723], [121.058941, 14.628732], [121.058928, 14.628742], [121.058909, 14.62875], [121.058889, 14.628757], [121.058869, 14.628762], [121.058852, 14.628762], [121.058829, 14.628761], [121.058806, 14.628757], [121.058785, 14.628753], [121.05869, 14.628746], [121.058628, 14.628736], [121.058565, 14.628723], [121.058515, 14.628718], [121.058445, 14.628709], [121.058388, 14.628699], [121.058322, 14.628684], [121.058247, 14.628656], [121.058163, 14.628617], [121.057852, 14.628478], [121.057809, 14.628455], [121.057769, 14.628432], [121.057722, 14.628407], [121.057658, 14.62837], [121.057589, 14.628336], [121.057557, 14.628324], [121.057529, 14.628318], [121.057496, 14.628315], [121.057462, 14.628317], [121.057422, 14.628326], [121.057385, 14.628339], [121.057342, 14.628357], [121.057281, 14.628389], [121.057243, 14.628414], [121.057208, 14.628437], [121.057175, 14.62847], [121.057155, 14.628501], [121.057143, 14.628535], [121.057137, 14.628568], [121.057139, 14.628607], [121.057145, 14.628638], [121.057155, 14.628678], [121.057168, 14.628721], [121.057181, 14.628761], [121.057196, 14.628819], [121.057216, 14.628885], [121.057226, 14.628923], [121.057236, 14.628963], [121.057245, 14.629007], [121.057251, 14.629064], [121.057247, 14.629098], [121.057237, 14.629133], [121.057223, 14.629168], [121.057208, 14.629191], [121.05719, 14.629218], [121.057158, 14.629255], [121.057118, 14.629294], [121.057075, 14.629326], [121.057028, 14.62935], [121.056973, 14.629371], [121.056912, 14.629386], [121.056846, 14.629394], [121.056784, 14.629398], [121.056739, 14.629398], [121.056655, 14.629394], [121.056571, 14.629389], [121.05647, 14.629375], [121.056369, 14.629354], [121.056281, 14.629335], [121.056201, 14.629316], [121.05612, 14.629292], [121.056038, 14.629265], [121.055974, 14.629246], [121.055899, 14.629225], [121.055821, 14.629369], [121.055869, 14.629417], [121.055935, 14.629482], [121.056126, 14.629723], [121.056065, 14.629799], [121.056419, 14.630153], [121.056458, 14.630192], [121.056561, 14.630105], [121.056767, 14.630316], [121.056725, 14.630364], [121.056987, 14.630612], [121.057027, 14.63057], [121.057151, 14.63069], [121.057065, 14.63077], [121.057287, 14.630994], [121.057459, 14.631137], [121.057546, 14.631048], [121.057676, 14.631172], [121.057633, 14.631213], [121.057654, 14.63123], [121.057668, 14.631247], [121.057766, 14.631343], [121.057743, 14.631373], [121.05792, 14.631552], [121.057969, 14.631501], [121.058072, 14.631607], [121.058008, 14.631678], [121.058262, 14.631919], [121.05903, 14.632672], [121.05907, 14.632645], [121.059121, 14.632695], [121.059091, 14.632734], [121.059387, 14.633025], [121.05943, 14.633067], [121.059718, 14.632802]]]}, "properties": {"pcode": "PH1307404085", "name": "Quirino 2-A", "muni": "Quezon City", "lat": 14.630713, "lon": 121.059171}}, {"type": "Feature", "geometry": {"type": "Polygon", "coordinates": [[[121.061645, 14.634658], [121.062017, 14.63429], [121.062378, 14.633936], [121.062729, 14.633598], [121.062759, 14.633568], [121.063087, 14.633234], [121.063211, 14.633116], [121.063268, 14.63306], [121.063571, 14.632773], [121.063702, 14.63264], [121.063678, 14.632616], [121.063637, 14.632572], [121.063627, 14.632556], [121.063617, 14.63254], [121.063609, 14.63252], [121.063607, 14.632496], [121.063606, 14.632473], [121.063609, 14.63245], [121.063615, 14.63242], [121.063653, 14.632332], [121.063696, 14.632275], [121.063703, 14.632261], [121.063765, 14.632125], [121.063786, 14.632051], [121.063788, 14.631984], [121.063773, 14.631891], [121.063738, 14.631755], [121.063708, 14.631689], [121.063691, 14.631637], [121.063684, 14.631573], [121.06369, 14.631495], [121.063694, 14.631429], [121.06369, 14.631351], [121.063656, 14.631267], [121.063604, 14.631152], [121.063583, 14.631109], [121.06354, 14.631047], [121.063475, 14.630981], [121.063415, 14.630933], [121.063305, 14.630843], [121.063239, 14.630787], [121.063177, 14.630723], [121.063012, 14.630492], [121.062901, 14.630317], [121.062875, 14.630264], [121.062848, 14.630202], [121.062836, 14.630133], [121.06282, 14.630081], [121.062792, 14.630013], [121.062772, 14.629969], [121.062735, 14.629874], [121.062698, 14.629814], [121.062622, 14.62971], [121.062572, 14.629649], [121.062502, 14.629594], [121.062449, 14.62955], [121.062416, 14.629519], [121.062368, 14.629475], [121.062333, 14.629437], [121.062296, 14.629396], [121.062277, 14.629375], [121.062239, 14.629333], [121.062106, 14.629421], [121.062019, 14.629483], [121.061952, 14.629538], [121.06191, 14.629571], [121.061886, 14.629593], [121.061837, 14.629646], [121.061784, 14.629713], [121.061728, 14.629795], [121.061657, 14.629905], [121.061647, 14.629926], [121.061574, 14.630055], [121.061436, 14.630303], [121.061414, 14.63034], [121.061205, 14.630736], [121.061194, 14.630758], [121.060983, 14.631164], [121.060974, 14.631184], [121.060942, 14.631245], [121.060757, 14.631603], [121.06073, 14.631652], [121.060695, 14.631716], [121.060642, 14.631812], [121.060568, 14.631931], [121.060532, 14.631981], [121.060455, 14.632066], [121.060312, 14.63222], [121.060223, 14.632318], [121.060085, 14.632448], [121.059718, 14.632802], [121.05943, 14.633067], [121.059468, 14.633103], [121.059738, 14.633362], [121.060457, 14.634051], [121.060441, 14.634067], [121.060506, 14.634132], [121.060524, 14.634114], [121.060771, 14.634346], [121.060885, 14.634454], [121.061337, 14.634893], [121.061369, 14.634926], [121.061645, 14.634658]]]}, "properties": {"pcode": "PH1307404086", "name": "Quirino 2-B", "muni": "Quezon City", "lat": 14.632172, "lon": 121.062049}}, {"type": "Feature", "geometry": {"type": "Polygon", "coordinates": [[[121.062623, 14.636283], [121.062676, 14.636224], [121.06277, 14.636145], [121.062818, 14.63612], [121.062852, 14.63612], [121.062896, 14.636118], [121.062948, 14.636053], [121.063055, 14.636101], [121.063302, 14.636203], [121.063498, 14.636238], [121.063523, 14.636242], [121.063558, 14.63626], [121.063589, 14.636276], [121.063614, 14.636282], [121.063641, 14.636289], [121.063679, 14.636288], [121.06369, 14.63631], [121.063746, 14.636285], [121.06376, 14.63628], [121.063742, 14.636194], [121.06374, 14.636167], [121.063766, 14.63617], [121.06378, 14.636172], [121.063789, 14.63617], [121.063802, 14.636167], [121.063821, 14.636155], [121.063838, 14.63619], [121.063868, 14.636272], [121.063931, 14.636285], [121.06402, 14.635834], [121.064036, 14.635771], [121.064047, 14.635735], [121.064061, 14.635694], [121.064087, 14.635594], [121.064153, 14.635262], [121.064252, 14.63482], [121.064329, 14.634486], [121.064398, 14.634191], [121.064438, 14.63401], [121.064491, 14.633787], [121.064493, 14.633769], [121.064466, 14.633763], [121.064415, 14.633748], [121.064365, 14.633736], [121.064328, 14.633726], [121.064307, 14.633712], [121.064289, 14.633698], [121.06427, 14.633677], [121.064257, 14.633649], [121.064253, 14.63363], [121.06425, 14.633607], [121.064251, 14.633571], [121.064256, 14.633479], [121.06425, 14.633366], [121.064247, 14.63329], [121.064232, 14.633229], [121.064217, 14.633188], [121.06419, 14.633132], [121.064158, 14.633073], [121.064113, 14.633007], [121.064072, 14.63295], [121.064031, 14.6329], [121.063977, 14.63283], [121.063891, 14.632762], [121.063838, 14.632733], [121.063806, 14.632715], [121.063768, 14.632698], [121.063732, 14.632672], [121.063702, 14.63264], [121.063571, 14.632773], [121.063268, 14.63306], [121.063211, 14.633116], [121.063087, 14.633234], [121.062759, 14.633568], [121.062729, 14.633598], [121.062378, 14.633936], [121.062017, 14.63429], [121.061645, 14.634658], [121.061369, 14.634926], [121.061229, 14.635065], [121.061207, 14.635082], [121.061191, 14.635091], [121.06117, 14.635097], [121.061132, 14.635103], [121.061593, 14.635266], [121.061585, 14.635291], [121.061393, 14.635954], [121.061593, 14.636022], [121.062172, 14.636194], [121.06254, 14.636314], [121.062623, 14.636283]]]}, "properties": {"pcode": "PH1307404087", "name": "Quirino 2-C", "muni": "Quezon City", "lat": 14.634388, "lon": 121.063135}}, {"type": "Feature", "geometry": {"type": "Polygon", "coordinates": [[[121.056665, 14.654313], [121.056704, 14.654245], [121.056723, 14.654245], [121.057578, 14.654261], [121.057595, 14.654148], [121.05762, 14.65413], [121.057693, 14.654119], [121.057779, 14.654121], [121.057865, 14.654129], [121.057969, 14.654157], [121.058017, 14.654054], [121.058022, 14.654046], [121.057963, 14.654011], [121.057932, 14.653986], [121.057894, 14.653972], [121.057859, 14.653968], [121.057819, 14.653963], [121.057783, 14.653954], [121.057751, 14.653939], [121.057717, 14.653925], [121.057681, 14.653918], [121.057651, 14.653919], [121.057636, 14.65392], [121.057637, 14.653912], [121.057714, 14.653255], [121.057762, 14.65326], [121.0579, 14.65328], [121.057907, 14.653246], [121.057921, 14.653075], [121.058021, 14.652535], [121.058045, 14.652394], [121.0581, 14.652388], [121.058176, 14.652087], [121.05823, 14.651829], [121.058273, 14.651816], [121.058602, 14.651551], [121.058648, 14.651474], [121.058702, 14.651415], [121.058799, 14.651318], [121.058565, 14.65115], [121.058517, 14.65123], [121.058472, 14.651296], [121.058423, 14.651369], [121.058358, 14.651438], [121.058293, 14.651504], [121.058229, 14.651566], [121.058158, 14.651621], [121.058079, 14.651682], [121.058011, 14.65173], [121.057923, 14.65179], [121.057819, 14.651853], [121.057682, 14.65191], [121.057525, 14.651972], [121.05736, 14.652012], [121.057177, 14.652047], [121.05712, 14.652051], [121.05707, 14.652047], [121.057044, 14.652039], [121.057026, 14.652036], [121.057009, 14.652033], [121.056845, 14.65203], [121.056796, 14.652039], [121.056764, 14.652045], [121.056726, 14.652037], [121.056575, 14.652006], [121.056456, 14.651988], [121.056335, 14.651968], [121.05616, 14.651918], [121.056079, 14.651908], [121.055997, 14.651916], [121.05585, 14.651922], [121.05578, 14.651918], [121.055675, 14.651929], [121.055503, 14.651955], [121.055405, 14.652107], [121.055342, 14.652198], [121.055278, 14.652318], [121.055246, 14.652402], [121.055177, 14.652392], [121.055133, 14.652488], [121.055086, 14.652477], [121.054597, 14.652319], [121.054245, 14.652469], [121.054175, 14.652484], [121.054085, 14.652478], [121.054059, 14.652471], [121.054035, 14.652457], [121.053743, 14.652196], [121.053694, 14.652189], [121.053632, 14.652277], [121.053552, 14.652491], [121.053544, 14.652538], [121.053544, 14.652557], [121.053545, 14.652579], [121.053546, 14.652606], [121.053498, 14.65277], [121.053446, 14.652879], [121.053396, 14.653005], [121.053373, 14.653035], [121.05334, 14.65306], [121.053294, 14.653081], [121.053245, 14.653104], [121.053216, 14.653116], [121.05316, 14.65314], [121.053105, 14.653164], [121.053039, 14.653197], [121.052947, 14.653253], [121.052833, 14.653343], [121.05265, 14.653504], [121.053064, 14.653762], [121.053684, 14.653973], [121.053843, 14.654034], [121.053984, 14.654084], [121.054075, 14.654114], [121.054231, 14.65415], [121.054896, 14.654292], [121.055879, 14.654508], [121.056426, 14.654621], [121.05649, 14.654633], [121.056665, 14.654313]]]}, "properties": {"pcode": "PH1307404103", "name": "San Vicente", "muni": "Quezon City", "lat": 14.652942, "lon": 121.055683}}, {"type": "Feature", "geometry": {"type": "Polygon", "coordinates": [[[121.061513, 14.642476], [121.061552, 14.642442], [121.061559, 14.642397], [121.061557, 14.64238], [121.061525, 14.642348], [121.061575, 14.641735], [121.061582, 14.641671], [121.061612, 14.641209], [121.061612, 14.641189], [121.061612, 14.641167], [121.061611, 14.641041], [121.061629, 14.640784], [121.061654, 14.640606], [121.061681, 14.640422], [121.061699, 14.639939], [121.061743, 14.639082], [121.061745, 14.639052], [121.061745, 14.639033], [121.061745, 14.639017], [121.061767, 14.639017], [121.061786, 14.638657], [121.061822, 14.638302], [121.061919, 14.637063], [121.061921, 14.637035], [121.061525, 14.637007], [121.061535, 14.636876], [121.061525, 14.636756], [121.061519, 14.636718], [121.061507, 14.636679], [121.061489, 14.636632], [121.061464, 14.636575], [121.061444, 14.636537], [121.061415, 14.636495], [121.061392, 14.636462], [121.061356, 14.63642], [121.061318, 14.636386], [121.061277, 14.636351], [121.061283, 14.636327], [121.061298, 14.636274], [121.061303, 14.636257], [121.061308, 14.636239], [121.061393, 14.635954], [121.061585, 14.635291], [121.061593, 14.635266], [121.061132, 14.635103], [121.061092, 14.635102], [121.061046, 14.635096], [121.061, 14.635086], [121.05886, 14.634473], [121.057234, 14.633997], [121.057217, 14.634053], [121.057001, 14.634709], [121.05686, 14.635171], [121.056844, 14.635217], [121.056805, 14.635227], [121.056723, 14.635252], [121.056621, 14.635288], [121.056517, 14.635328], [121.056433, 14.635368], [121.056369, 14.6354], [121.056301, 14.635445], [121.056251, 14.635481], [121.056203, 14.635517], [121.056142, 14.635566], [121.056096, 14.635603], [121.056012, 14.635668], [121.056072, 14.635809], [121.056086, 14.635857], [121.056096, 14.635899], [121.056119, 14.636018], [121.056167, 14.636277], [121.056201, 14.636466], [121.056228, 14.63661], [121.056258, 14.636786], [121.05628, 14.636942], [121.056311, 14.637179], [121.05634, 14.637398], [121.056366, 14.637728], [121.056377, 14.637911], [121.056388, 14.638103], [121.0564, 14.638326], [121.056408, 14.63851], [121.056412, 14.638667], [121.056409, 14.638919], [121.05641, 14.639098], [121.056406, 14.639348], [121.056995, 14.639361], [121.057569, 14.63936], [121.057501, 14.640509], [121.057502, 14.640533], [121.057504, 14.640555], [121.057508, 14.640579], [121.057513, 14.6406], [121.057523, 14.640619], [121.057537, 14.64065], [121.057556, 14.64069], [121.057576, 14.640717], [121.057597, 14.640746], [121.057604, 14.640754], [121.057627, 14.64078], [121.057656, 14.640812], [121.057682, 14.640834], [121.057709, 14.640849], [121.057737, 14.640865], [121.057771, 14.64088], [121.057813, 14.640899], [121.05785, 14.640912], [121.057886, 14.640923], [121.057918, 14.640929], [121.05795, 14.640935], [121.057997, 14.64094], [121.058177, 14.640954], [121.058801, 14.641005], [121.059425, 14.641042], [121.059986, 14.641084], [121.059941, 14.641635], [121.059901, 14.642186], [121.059861, 14.64284], [121.06044, 14.642867], [121.061069, 14.642898], [121.061072, 14.642857], [121.061112, 14.642861], [121.061482, 14.642904], [121.061513, 14.642476]]]}, "properties": {"pcode": "PH1307404113", "name": "Sikatuna Village", "muni": "Quezon City", "lat": 14.638418, "lon": 121.059107}}, {"type": "Feature", "geometry": {"type": "Polygon", "coordinates": [[[121.057573, 14.647134], [121.057658, 14.647055], [121.057731, 14.646985], [121.057833, 14.646902], [121.057924, 14.646843], [121.058052, 14.64676], [121.058175, 14.646699], [121.058322, 14.646632], [121.058633, 14.646527], [121.059047, 14.646404], [121.059075, 14.64646], [121.059099, 14.646506], [121.059127, 14.646546], [121.059154, 14.646586], [121.059183, 14.646622], [121.05921, 14.64665], [121.059238, 14.646676], [121.059268, 14.646702], [121.05929, 14.64672], [121.059336, 14.64675], [121.05939, 14.646781], [121.059426, 14.646797], [121.059457, 14.646811], [121.059496, 14.646823], [121.05955, 14.646837], [121.059576, 14.646841], [121.059604, 14.646844], [121.059671, 14.646849], [121.059737, 14.646852], [121.059785, 14.646854], [121.059934, 14.646853], [121.060664, 14.646841], [121.060685, 14.646837], [121.060702, 14.646832], [121.06072, 14.646827], [121.060736, 14.64682], [121.060757, 14.646813], [121.060774, 14.646802], [121.06081, 14.646803], [121.061149, 14.646815], [121.06115, 14.646795], [121.061151, 14.646772], [121.061178, 14.646372], [121.061183, 14.646304], [121.061194, 14.646137], [121.061244, 14.645478], [121.06126, 14.645281], [121.061273, 14.645024], [121.061284, 14.644933], [121.061294, 14.644829], [121.061311, 14.644667], [121.061318, 14.64461], [121.061326, 14.644454], [121.061349, 14.644276], [121.061353, 14.644257], [121.061354, 14.64424], [121.061355, 14.644224], [121.06137, 14.644011], [121.061482, 14.642904], [121.061112, 14.642861], [121.061072, 14.642857], [121.061069, 14.642898], [121.06044, 14.642867], [121.059861, 14.64284], [121.059901, 14.642186], [121.059941, 14.641635], [121.059986, 14.641084], [121.059425, 14.641042], [121.058801, 14.641005], [121.058177, 14.640954], [121.058128, 14.64151], [121.058088, 14.642061], [121.058038, 14.642712], [121.058004, 14.643053], [121.057982, 14.643155], [121.057969, 14.643217], [121.057948, 14.643281], [121.057924, 14.643346], [121.057686, 14.643899], [121.057482, 14.644433], [121.057396, 14.644633], [121.057346, 14.644777], [121.05731, 14.64491], [121.057299, 14.644979], [121.057284, 14.645089], [121.057273, 14.645211], [121.057264, 14.64536], [121.057258, 14.645521], [121.057253, 14.645765], [121.057252, 14.646107], [121.057253, 14.646683], [121.057258, 14.64675], [121.057263, 14.646788], [121.057273, 14.64683], [121.057286, 14.646872], [121.057307, 14.646918], [121.057321, 14.646953], [121.057342, 14.64699], [121.057368, 14.647027], [121.057403, 14.647074], [121.057459, 14.64716], [121.057494, 14.64722], [121.057573, 14.647134]]]}, "properties": {"pcode": "PH1307404122", "name": "Teachers Village East", "muni": "Quezon City", "lat": 14.644118, "lon": 121.059483}}, {"type": "Feature", "geometry": {"type": "Polygon", "coordinates": [[[121.055358, 14.645675], [121.055451, 14.645721], [121.055554, 14.645768], [121.055648, 14.645804], [121.05579, 14.645858], [121.055923, 14.645908], [121.056031, 14.645933], [121.056158, 14.645959], [121.056334, 14.645989], [121.056523, 14.646017], [121.056738, 14.646047], [121.057011, 14.646084], [121.057131, 14.646095], [121.057252, 14.646107], [121.057253, 14.645765], [121.057258, 14.645521], [121.057264, 14.64536], [121.057273, 14.645211], [121.057284, 14.645089], [121.057299, 14.644979], [121.05731, 14.64491], [121.057346, 14.644777], [121.057396, 14.644633], [121.057482, 14.644433], [121.057686, 14.643899], [121.057924, 14.643346], [121.057948, 14.643281], [121.057969, 14.643217], [121.057982, 14.643155], [121.058004, 14.643053], [121.058038, 14.642712], [121.058088, 14.642061], [121.058128, 14.64151], [121.058177, 14.640954], [121.057997, 14.64094], [121.05795, 14.640935], [121.057918, 14.640929], [121.057886, 14.640923], [121.05785, 14.640912], [121.057813, 14.640899], [121.057771, 14.64088], [121.057737, 14.640865], [121.057709, 14.640849], [121.057682, 14.640834], [121.057656, 14.640812], [121.057627, 14.64078], [121.057604, 14.640754], [121.057597, 14.640746], [121.057576, 14.640717], [121.057556, 14.64069], [121.057537, 14.64065], [121.057523, 14.640619], [121.057513, 14.6406], [121.057508, 14.640579], [121.057504, 14.640555], [121.057502, 14.640533], [121.057501, 14.640509], [121.057569, 14.63936], [121.056995, 14.639361], [121.056406, 14.639348], [121.055763, 14.639332], [121.054919, 14.639301], [121.054899, 14.63974], [121.05488, 14.640033], [121.05485, 14.640278], [121.054807, 14.640636], [121.054762, 14.640935], [121.054721, 14.641224], [121.054703, 14.641313], [121.054668, 14.64148], [121.054642, 14.641599], [121.05461, 14.641755], [121.054572, 14.641932], [121.054541, 14.642046], [121.055371, 14.642239], [121.055328, 14.642422], [121.055253, 14.642718], [121.05512, 14.643152], [121.055016, 14.643477], [121.054875, 14.643851], [121.054731, 14.644199], [121.054597, 14.644496], [121.054443, 14.644827], [121.05429, 14.645138], [121.054161, 14.645383], [121.054017, 14.645654], [121.054574, 14.645953], [121.055083, 14.646226], [121.055358, 14.645675]]]}, "properties": {"pcode": "PH1307404123", "name": "Teachers Village West", "muni": "Quezon City", "lat": 14.642886, "lon": 121.056611}}, {"type": "Feature", "geometry": {"type": "Polygon", "coordinates": [[[121.073741, 14.66348], [121.073871, 14.6634], [121.073922, 14.663361], [121.073973, 14.663316], [121.07402, 14.663276], [121.074066, 14.663228], [121.074245, 14.663019], [121.074264, 14.66306], [121.074291, 14.663105], [121.074414, 14.662981], [121.074821, 14.662465], [121.075109, 14.662], [121.075352, 14.661493], [121.076132, 14.659854], [121.076183, 14.659705], [121.076189, 14.659661], [121.076196, 14.659569], [121.076219, 14.659513], [121.076233, 14.659464], [121.076241, 14.659397], [121.07624, 14.659336], [121.076231, 14.659264], [121.076213, 14.659224], [121.076178, 14.659182], [121.076062, 14.659084], [121.075804, 14.658859], [121.074788, 14.657983], [121.074651, 14.657858], [121.074534, 14.657744], [121.074459, 14.65767], [121.074404, 14.657614], [121.074374, 14.657572], [121.074354, 14.657528], [121.074387, 14.654884], [121.074373, 14.653519], [121.074372, 14.652915], [121.074541, 14.652916], [121.076172, 14.652979], [121.076206, 14.65191], [121.076198, 14.650818], [121.076201, 14.650139], [121.076202, 14.649731], [121.07618, 14.649466], [121.074757, 14.64805], [121.074757, 14.647883], [121.074533, 14.647667], [121.074357, 14.647664], [121.074357, 14.647643], [121.074352, 14.647206], [121.074194, 14.647099], [121.074043, 14.647023], [121.07402, 14.647007], [121.073995, 14.646978], [121.073967, 14.646946], [121.0739, 14.646881], [121.073794, 14.646801], [121.07359, 14.646635], [121.073572, 14.646619], [121.073404, 14.646461], [121.073074, 14.646155], [121.072748, 14.645841], [121.072652, 14.645745], [121.072131, 14.645243], [121.071909, 14.645026], [121.071507, 14.644624], [121.071264, 14.644399], [121.071214, 14.64435], [121.071085, 14.644267], [121.071065, 14.644252], [121.071033, 14.64422], [121.071138, 14.644124], [121.070928, 14.643909], [121.070673, 14.643671], [121.070203, 14.643249], [121.069713, 14.642764], [121.068703, 14.641753], [121.06853, 14.641632], [121.068476, 14.641687], [121.068212, 14.641452], [121.068158, 14.641509], [121.067579, 14.64094], [121.067564, 14.640925], [121.067513, 14.640979], [121.067491, 14.640962], [121.06742, 14.640902], [121.067348, 14.640843], [121.067316, 14.640769], [121.067219, 14.64066], [121.067184, 14.64063], [121.06717, 14.640602], [121.067021, 14.64049], [121.066967, 14.640444], [121.066948, 14.640449], [121.066887, 14.6404], [121.066704, 14.64022], [121.066506, 14.640053], [121.066329, 14.640264], [121.0661, 14.640055], [121.065952, 14.639913], [121.065837, 14.639795], [121.065788, 14.63973], [121.065734, 14.639686], [121.065079, 14.63918], [121.065091, 14.639103], [121.065071, 14.639093], [121.064969, 14.638993], [121.064734, 14.638812], [121.064565, 14.638984], [121.064396, 14.639181], [121.064255, 14.639322], [121.064091, 14.639493], [121.064064, 14.639521], [121.064025, 14.639479], [121.063965, 14.639426], [121.06391, 14.639383], [121.06387, 14.63936], [121.063801, 14.639324], [121.063675, 14.63926], [121.063572, 14.639214], [121.063506, 14.639191], [121.063451, 14.639172], [121.063383, 14.639156], [121.063316, 14.639147], [121.063255, 14.639144], [121.063049, 14.639136], [121.062449, 14.639103], [121.062344, 14.640191], [121.062321, 14.640497], [121.063207, 14.640746], [121.063231, 14.640752], [121.063255, 14.640761], [121.06332, 14.640786], [121.063372, 14.64082], [121.063389, 14.640836], [121.063411, 14.640874], [121.06342, 14.640904], [121.063431, 14.640943], [121.063433, 14.640978], [121.063434, 14.641005], [121.06343, 14.641029], [121.063419, 14.641061], [121.063396, 14.641102], [121.063334, 14.641195], [121.063128, 14.641458], [121.063015, 14.641625], [121.062955, 14.641713], [121.062816, 14.641945], [121.062644, 14.642234], [121.06306, 14.642534], [121.063074, 14.642543], [121.063708, 14.642999], [121.064147, 14.643315], [121.064238, 14.643381], [121.064301, 14.643436], [121.064344, 14.643483], [121.064382, 14.643524], [121.064408, 14.64356], [121.06443, 14.643594], [121.064452, 14.643639], [121.064467, 14.643686], [121.064478, 14.643724], [121.064492, 14.64377], [121.064497, 14.643797], [121.064505, 14.643846], [121.064529, 14.644382], [121.064536, 14.644489], [121.064575, 14.645098], [121.06459, 14.645618], [121.064617, 14.646299], [121.06463, 14.646687], [121.064636, 14.646911], [121.064662, 14.647606], [121.064663, 14.647638], [121.064448, 14.647625], [121.064364, 14.647634], [121.064279, 14.647652], [121.06423, 14.647659], [121.064189, 14.647664], [121.064154, 14.647668], [121.064093, 14.647669], [121.064043, 14.647669], [121.063942, 14.647665], [121.06386, 14.647658], [121.063774, 14.647648], [121.063659, 14.647631], [121.06355, 14.647611], [121.063443, 14.647586], [121.063258, 14.647537], [121.062663, 14.647376], [121.062323, 14.647293], [121.062166, 14.64725], [121.062044, 14.647215], [121.061948, 14.647191], [121.06183, 14.64716], [121.061671, 14.647125], [121.061525, 14.6471], [121.061393, 14.647083], [121.061278, 14.647073], [121.06114, 14.647065], [121.061141, 14.647014], [121.06115, 14.646831], [121.061149, 14.646815], [121.06081, 14.646803], [121.060774, 14.646802], [121.060757, 14.646813], [121.060736, 14.64682], [121.06072, 14.646827], [121.060702, 14.646832], [121.060685, 14.646837], [121.060664, 14.646841], [121.059934, 14.646853], [121.059785, 14.646854], [121.05978, 14.646896], [121.059757, 14.647056], [121.059724, 14.647184], [121.059644, 14.647194], [121.059644, 14.647279], [121.059638, 14.647435], [121.059654, 14.647455], [121.059635, 14.647625], [121.059514, 14.648177], [121.059535, 14.648256], [121.059488, 14.648427], [121.059446, 14.64844], [121.059362, 14.648821], [121.059232, 14.649473], [121.05916, 14.649783], [121.059107, 14.649953], [121.059055, 14.650097], [121.058912, 14.650431], [121.058786, 14.650704], [121.058627, 14.651035], [121.058565, 14.65115], [121.058799, 14.651318], [121.058702, 14.651415], [121.058648, 14.651474], [121.058602, 14.651551], [121.058273, 14.651816], [121.05823, 14.651829], [121.058176, 14.652087], [121.0581, 14.652388], [121.058045, 14.652394], [121.058021, 14.652535], [121.057921, 14.653075], [121.057907, 14.653246], [121.0579, 14.65328], [121.057762, 14.65326], [121.057714, 14.653255], [121.057637, 14.653912], [121.057636, 14.65392], [121.057651, 14.653919], [121.057681, 14.653918], [121.057717, 14.653925], [121.057751, 14.653939], [121.057783, 14.653954], [121.057819, 14.653963], [121.057859, 14.653968], [121.057894, 14.653972], [121.057932, 14.653986], [121.057963, 14.654011], [121.058022, 14.654046], [121.058017, 14.654054], [121.057969, 14.654157], [121.057865, 14.654129], [121.057779, 14.654121], [121.057693, 14.654119], [121.05762, 14.65413], [121.057595, 14.654148], [121.057578, 14.654261], [121.056723, 14.654245], [121.056704, 14.654245], [121.056665, 14.654313], [121.05649, 14.654633], [121.056426, 14.654621], [121.055879, 14.654508], [121.054896, 14.654292], [121.054231, 14.65415], [121.054075, 14.654114], [121.053984, 14.654084], [121.053843, 14.654034], [121.053684, 14.653973], [121.053064, 14.653762], [121.05265, 14.653504], [121.052531, 14.653703], [121.05251, 14.65373], [121.05245, 14.653875], [121.052445, 14.653941], [121.05244, 14.654045], [121.05244, 14.654123], [121.05243, 14.654237], [121.052424, 14.654292], [121.052414, 14.654328], [121.052403, 14.654355], [121.052391, 14.654385], [121.052369, 14.654411], [121.052344, 14.654432], [121.052313, 14.654446], [121.052292, 14.654459], [121.052271, 14.654465], [121.052242, 14.654473], [121.052202, 14.654474], [121.052157, 14.654481], [121.052006, 14.654496], [121.051889, 14.654515], [121.051695, 14.654573], [121.051537, 14.654623], [121.051389, 14.654672], [121.051321, 14.654704], [121.051284, 14.654739], [121.051237, 14.654793], [121.051199, 14.654838], [121.051138, 14.654938], [121.051073, 14.655039], [121.050968, 14.655191], [121.050902, 14.655261], [121.050801, 14.65539], [121.050708, 14.655496], [121.050654, 14.655559], [121.050601, 14.655637], [121.050558, 14.655696], [121.050445, 14.655835], [121.050368, 14.655903], [121.050265, 14.655966], [121.050208, 14.655992], [121.050171, 14.656018], [121.05015, 14.656032], [121.050119, 14.656046], [121.050094, 14.65605], [121.049999, 14.656087], [121.049839, 14.656146], [121.049761, 14.656187], [121.049632, 14.656255], [121.049441, 14.656364], [121.049357, 14.656414], [121.049309, 14.656451], [121.04909, 14.656631], [121.050916, 14.659165], [121.050958, 14.659145], [121.051081, 14.659318], [121.051124, 14.659388], [121.051115, 14.65942], [121.051089, 14.659475], [121.051071, 14.659508], [121.051042, 14.659541], [121.051008, 14.659566], [121.05097, 14.659592], [121.050931, 14.659615], [121.050878, 14.659641], [121.050857, 14.659602], [121.050358, 14.659775], [121.05019, 14.659864], [121.050134, 14.659901], [121.050121, 14.659882], [121.050091, 14.659901], [121.049229, 14.660424], [121.049205, 14.660434], [121.049185, 14.660435], [121.049177, 14.660481], [121.049044, 14.660936], [121.049012, 14.660962], [121.048835, 14.660974], [121.048349, 14.660918], [121.048201, 14.660975], [121.048721, 14.662056], [121.048746, 14.662128], [121.049058, 14.662122], [121.049764, 14.662122], [121.050123, 14.662115], [121.050603, 14.662107], [121.051044, 14.662094], [121.051453, 14.662082], [121.051738, 14.662074], [121.052552, 14.662049], [121.053411, 14.662029], [121.054096, 14.662015], [121.054879, 14.661991], [121.055824, 14.661981], [121.057304, 14.661946], [121.058036, 14.661926], [121.058189, 14.661922], [121.058992, 14.661905], [121.059415, 14.661895], [121.059753, 14.661885], [121.060018, 14.661878], [121.06046, 14.661866], [121.060819, 14.661841], [121.061022, 14.661824], [121.061199, 14.661811], [121.06153, 14.661785], [121.06279, 14.661741], [121.06348, 14.661761], [121.064187, 14.661786], [121.06466, 14.661804], [121.064888, 14.661838], [121.065241, 14.661935], [121.065398, 14.66198], [121.066039, 14.662347], [121.066392, 14.662353], [121.066765, 14.662395], [121.068702, 14.662652], [121.07163, 14.66306], [121.071649, 14.663062], [121.071669, 14.663064], [121.073004, 14.663239], [121.073531, 14.663309], [121.073672, 14.663484], [121.073687, 14.663508], [121.073741, 14.66348]]]}, "properties": {"pcode": "PH1307404124", "name": "U.P. Campus", "muni": "Quezon City", "lat": 14.651234, "lon": 121.067442}}, {"type": "Feature", "geometry": {"type": "Polygon", "coordinates": [[[121.055278, 14.652318], [121.055342, 14.652198], [121.055405, 14.652107], [121.055503, 14.651955], [121.055675, 14.651929], [121.05578, 14.651918], [121.05585, 14.651922], [121.055997, 14.651916], [121.056079, 14.651908], [121.05616, 14.651918], [121.056335, 14.651968], [121.056456, 14.651988], [121.056575, 14.652006], [121.056726, 14.652037], [121.056764, 14.652045], [121.056796, 14.652039], [121.056845, 14.65203], [121.057009, 14.652033], [121.057026, 14.652036], [121.057044, 14.652039], [121.05707, 14.652047], [121.05712, 14.652051], [121.057177, 14.652047], [121.05736, 14.652012], [121.057525, 14.651972], [121.057682, 14.65191], [121.057819, 14.651853], [121.057923, 14.65179], [121.058011, 14.65173], [121.058079, 14.651682], [121.058158, 14.651621], [121.058229, 14.651566], [121.058293, 14.651504], [121.058358, 14.651438], [121.058423, 14.651369], [121.058472, 14.651296], [121.058517, 14.65123], [121.058565, 14.65115], [121.058627, 14.651035], [121.058786, 14.650704], [121.058912, 14.650431], [121.059055, 14.650097], [121.059107, 14.649953], [121.05916, 14.649783], [121.059232, 14.649473], [121.059362, 14.648821], [121.059446, 14.64844], [121.059488, 14.648427], [121.059535, 14.648256], [121.059514, 14.648177], [121.059635, 14.647625], [121.059654, 14.647455], [121.059638, 14.647435], [121.059644, 14.647279], [121.059644, 14.647194], [121.059724, 14.647184], [121.059757, 14.647056], [121.05978, 14.646896], [121.059785, 14.646854], [121.059737, 14.646852], [121.059671, 14.646849], [121.059604, 14.646844], [121.059576, 14.646841], [121.05955, 14.646837], [121.059496, 14.646823], [121.059457, 14.646811], [121.059426, 14.646797], [121.05939, 14.646781], [121.059336, 14.64675], [121.05929, 14.64672], [121.059268, 14.646702], [121.059238, 14.646676], [121.05921, 14.64665], [121.059183, 14.646622], [121.059154, 14.646586], [121.059127, 14.646546], [121.059099, 14.646506], [121.059075, 14.64646], [121.059047, 14.646404], [121.058633, 14.646527], [121.058322, 14.646632], [121.058175, 14.646699], [121.058052, 14.64676], [121.057924, 14.646843], [121.057833, 14.646902], [121.057731, 14.646985], [121.057658, 14.647055], [121.057573, 14.647134], [121.057494, 14.64722], [121.057459, 14.64716], [121.057403, 14.647074], [121.057368, 14.647027], [121.057342, 14.64699], [121.057321, 14.646953], [121.057307, 14.646918], [121.057286, 14.646872], [121.057273, 14.64683], [121.057263, 14.646788], [121.057258, 14.64675], [121.057253, 14.646683], [121.057252, 14.646107], [121.057131, 14.646095], [121.057011, 14.646084], [121.056738, 14.646047], [121.056523, 14.646017], [121.056334, 14.645989], [121.056158, 14.645959], [121.056031, 14.645933], [121.055923, 14.645908], [121.05579, 14.645858], [121.055648, 14.645804], [121.055554, 14.645768], [121.055451, 14.645721], [121.055358, 14.645675], [121.055083, 14.646226], [121.054574, 14.645953], [121.054017, 14.645654], [121.05386, 14.645939], [121.053739, 14.64614], [121.053634, 14.646299], [121.053393, 14.646684], [121.053088, 14.647162], [121.052849, 14.647516], [121.053009, 14.647655], [121.053106, 14.647749], [121.05322, 14.647875], [121.053299, 14.647978], [121.053406, 14.648128], [121.05348, 14.648241], [121.053568, 14.648372], [121.053641, 14.648486], [121.053716, 14.648621], [121.053815, 14.648842], [121.053896, 14.649032], [121.053963, 14.6492], [121.054027, 14.649368], [121.054078, 14.649525], [121.054132, 14.6497], [121.054182, 14.649918], [121.054204, 14.650055], [121.053578, 14.650111], [121.053595, 14.650334], [121.053612, 14.650653], [121.053604, 14.650951], [121.053573, 14.651356], [121.053544, 14.651614], [121.053711, 14.651638], [121.053827, 14.651652], [121.053884, 14.651659], [121.054054, 14.651681], [121.054181, 14.65169], [121.054248, 14.651694], [121.054327, 14.651694], [121.0544, 14.65169], [121.054483, 14.651685], [121.054585, 14.65168], [121.054699, 14.651674], [121.054836, 14.651659], [121.054964, 14.651647], [121.055055, 14.651636], [121.055105, 14.65163], [121.055107, 14.651667], [121.055117, 14.651992], [121.05513, 14.652378], [121.055147, 14.652384], [121.055177, 14.652392], [121.055246, 14.652402], [121.055278, 14.652318]]]}, "properties": {"pcode": "PH1307404125", "name": "U.P. Village", "muni": "Quezon City", "lat": 14.648937, "lon": 121.056597}}, {"type": "Feature", "geometry": {"type": "Polygon", "coordinates": [[[121.052248, 14.631998], [121.052381, 14.631559], [121.05251, 14.631132], [121.052639, 14.630708], [121.052646, 14.630687], [121.052719, 14.630459], [121.052737, 14.6304], [121.052499, 14.630295], [121.052418, 14.63025], [121.052317, 14.630176], [121.052223, 14.630106], [121.052156, 14.630044], [121.05209, 14.629983], [121.052064, 14.629961], [121.052023, 14.629924], [121.051993, 14.629903], [121.051958, 14.62988], [121.051919, 14.629858], [121.05188, 14.629845], [121.05184, 14.629842], [121.051797, 14.629842], [121.051763, 14.629845], [121.051718, 14.629857], [121.051669, 14.629869], [121.05161, 14.629886], [121.051155, 14.630013], [121.051062, 14.630044], [121.051013, 14.630059], [121.050967, 14.63007], [121.050929, 14.630078], [121.050886, 14.63008], [121.050854, 14.630073], [121.050814, 14.630061], [121.050779, 14.630051], [121.050711, 14.630028], [121.050633, 14.630001], [121.050447, 14.629943], [121.050408, 14.629933], [121.050372, 14.629924], [121.05011, 14.62985], [121.050076, 14.629852], [121.050042, 14.629849], [121.050022, 14.629845], [121.04999, 14.629838], [121.049955, 14.629824], [121.049913, 14.629809], [121.049876, 14.629791], [121.049836, 14.62977], [121.049818, 14.629754], [121.0498, 14.629736], [121.049777, 14.629709], [121.049754, 14.629679], [121.049727, 14.629643], [121.049712, 14.629611], [121.04969, 14.629571], [121.049671, 14.629539], [121.049559, 14.629349], [121.049527, 14.629296], [121.049497, 14.629248], [121.049412, 14.629126], [121.049373, 14.629078], [121.049343, 14.629049], [121.049314, 14.629018], [121.049286, 14.628984], [121.049248, 14.628947], [121.049216, 14.628923], [121.049177, 14.628894], [121.049139, 14.628864], [121.049089, 14.628818], [121.049054, 14.628787], [121.049006, 14.628738], [121.048959, 14.628685], [121.048929, 14.628644], [121.048897, 14.628606], [121.048859, 14.628558], [121.04882, 14.62852], [121.048769, 14.628474], [121.048702, 14.628439], [121.048641, 14.628418], [121.04856, 14.628391], [121.048498, 14.628377], [121.048451, 14.628376], [121.048408, 14.628374], [121.048369, 14.628374], [121.048308, 14.628379], [121.048261, 14.628383], [121.048209, 14.628387], [121.048161, 14.628395], [121.048102, 14.628405], [121.048053, 14.628413], [121.047954, 14.62844], [121.047891, 14.628449], [121.047837, 14.628455], [121.047785, 14.628463], [121.047739, 14.628474], [121.04769, 14.628489], [121.047653, 14.628506], [121.04761, 14.628521], [121.047567, 14.628537], [121.047482, 14.628563], [121.047414, 14.628581], [121.047361, 14.628593], [121.047312, 14.628601], [121.047266, 14.628603], [121.047226, 14.628603], [121.047178, 14.628597], [121.047134, 14.628586], [121.046902, 14.628564], [121.046819, 14.62872], [121.046623, 14.629127], [121.046547, 14.6293], [121.046416, 14.629598], [121.046319, 14.629819], [121.045883, 14.630735], [121.046614, 14.630944], [121.046645, 14.630953], [121.047358, 14.631158], [121.049815, 14.63186], [121.049827, 14.631864], [121.052091, 14.63251], [121.052248, 14.631998]]]}, "properties": {"pcode": "PH1307404132", "name": "West Kamias", "muni": "Quezon City", "lat": 14.63043, "lon": 121.049378}}]}