{"type": "FeatureCollection", "features": [{"type": "Feature", "geometry": {"type": "Polygon", "coordinates": [[[121.058238, 14.667474], [121.058256, 14.66747], [121.058399, 14.667444], [121.058849, 14.667361], [121.059113, 14.667317], [121.059608, 14.667234], [121.059831, 14.667184], [121.060031, 14.667134], [121.060201, 14.667083], [121.060409, 14.667007], [121.061092, 14.666761], [121.061357, 14.666668], [121.06222, 14.666414], [121.062472, 14.666339], [121.062547, 14.666309], [121.062633, 14.666268], [121.062709, 14.666221], [121.062867, 14.666117], [121.063457, 14.66572], [121.063629, 14.665598], [121.063733, 14.66555], [121.063768, 14.66554], [121.063802, 14.665532], [121.06384, 14.665524], [121.06387, 14.665522], [121.06391, 14.665517], [121.063966, 14.66552], [121.064034, 14.665526], [121.064108, 14.665536], [121.064183, 14.665555], [121.064262, 14.665575], [121.064343, 14.665593], [121.064416, 14.665609], [121.06448, 14.665621], [121.064532, 14.665626], [121.064596, 14.66563], [121.064648, 14.665629], [121.064701, 14.665627], [121.06478, 14.665627], [121.064854, 14.665621], [121.064915, 14.665608], [121.064986, 14.665594], [121.065044, 14.66558], [121.065197, 14.665544], [121.065359, 14.6655], [121.065468, 14.665462], [121.065958, 14.665265], [121.066067, 14.665224], [121.066155, 14.665193], [121.066329, 14.665126], [121.067421, 14.66455], [121.067458, 14.664526], [121.067517, 14.664482], [121.067601, 14.664401], [121.068164, 14.663801], [121.066866, 14.662905], [121.066039, 14.662347], [121.065398, 14.66198], [121.065241, 14.661935], [121.064888, 14.661838], [121.06466, 14.661804], [121.064187, 14.661786], [121.06348, 14.661761], [121.06279, 14.661741], [121.06153, 14.661785], [121.061199, 14.661811], [121.061022, 14.661824], [121.060819, 14.661841], [121.06046, 14.661866], [121.060018, 14.661878], [121.059753, 14.661885], [121.059415, 14.661895], [121.058992, 14.661905], [121.058189, 14.661922], [121.058036, 14.661926], [121.057304, 14.661946], [121.055824, 14.661981], [121.054879, 14.661991], [121.054096, 14.662015], [121.054098, 14.66209], [121.054096, 14.662256], [121.054098, 14.662277], [121.054098, 14.662304], [121.054098, 14.662436], [121.053901, 14.662583], [121.05388, 14.662594], [121.0538, 14.662663], [121.053762, 14.662694], [121.053695, 14.662621], [121.053667, 14.662605], [121.053612, 14.662549], [121.05353, 14.662471], [121.053444, 14.66247], [121.053421, 14.662466], [121.053414, 14.662508], [121.053398, 14.662554], [121.053354, 14.662639], [121.053173, 14.662961], [121.053167, 14.662987], [121.053179, 14.663125], [121.0532, 14.663144], [121.053284, 14.663211], [121.053395, 14.663294], [121.053525, 14.663401], [121.053614, 14.663494], [121.053703, 14.663599], [121.054115, 14.663861], [121.054102, 14.663884], [121.053845, 14.66422], [121.053761, 14.664221], [121.053617, 14.664136], [121.053593, 14.664139], [121.053573, 14.665132], [121.053826, 14.665188], [121.053883, 14.6652], [121.053923, 14.665203], [121.054068, 14.665193], [121.054075, 14.665213], [121.05421, 14.665626], [121.054392, 14.665862], [121.05445, 14.665945], [121.054845, 14.666485], [121.05485, 14.666493], [121.055585, 14.666116], [121.055673, 14.666438], [121.055881, 14.666549], [121.056287, 14.666045], [121.056654, 14.66558], [121.056897, 14.665808], [121.057315, 14.666207], [121.057397, 14.666263], [121.057366, 14.666305], [121.057563, 14.666514], [121.057549, 14.666853], [121.057523, 14.667133], [121.057485, 14.66737], [121.057465, 14.66759], [121.057463, 14.667616], [121.057458, 14.66765], [121.058238, 14.667474]]]}, "properties": {"pcode": "PH1307404023", "name": "New Era (Constitution Hills)", "muni": "Quezon City", "lat": 14.664838, "lon": 121.060227}}, {"type": "Feature", "geometry": {"type": "Polygon", "coordinates": [[[121.092822, 14.668871], [121.092956, 14.668683], [121.093094, 14.668418], [121.09314, 14.668125], [121.093313, 14.668093], [121.093804, 14.668065], [121.094052, 14.668047], [121.094161, 14.668019], [121.094348, 14.668005], [121.094522, 14.66797], [121.094659, 14.667927], [121.0949, 14.667842], [121.094992, 14.667807], [121.095215, 14.667785], [121.091805, 14.66428], [121.090648, 14.663244], [121.090337, 14.662971], [121.08976, 14.662516], [121.089374, 14.660736], [121.089187, 14.659933], [121.089187, 14.659788], [121.089073, 14.658183], [121.089019, 14.657334], [121.089018, 14.657322], [121.088619, 14.656869], [121.088589, 14.656812], [121.088531, 14.656676], [121.088506, 14.65661], [121.088491, 14.656548], [121.088484, 14.6565], [121.088774, 14.656222], [121.088926, 14.656046], [121.088945, 14.656024], [121.088318, 14.654116], [121.088035, 14.654357], [121.087513, 14.652565], [121.087498, 14.652524], [121.087485, 14.65249], [121.087336, 14.652244], [121.087126, 14.652389], [121.085873, 14.653256], [121.085831, 14.653282], [121.085789, 14.653305], [121.085366, 14.653526], [121.085359, 14.653382], [121.085369, 14.653237], [121.085398, 14.653111], [121.085424, 14.653021], [121.085453, 14.652905], [121.085479, 14.652827], [121.085501, 14.652698], [121.085479, 14.652575], [121.085424, 14.652453], [121.08535, 14.652327], [121.085263, 14.652201], [121.085172, 14.652107], [121.085131, 14.652088], [121.085108, 14.652077], [121.085397, 14.651935], [121.085404, 14.651902], [121.085437, 14.651736], [121.085421, 14.651657], [121.0854, 14.651603], [121.085346, 14.651545], [121.085296, 14.651512], [121.085229, 14.651478], [121.085016, 14.651474], [121.084975, 14.651474], [121.085447, 14.650941], [121.085525, 14.650841], [121.085573, 14.650772], [121.085597, 14.650733], [121.085612, 14.650694], [121.085683, 14.650325], [121.085778, 14.649865], [121.085856, 14.649494], [121.085866, 14.649443], [121.085884, 14.649399], [121.085901, 14.649374], [121.085925, 14.649341], [121.086043, 14.649272], [121.086259, 14.64916], [121.086548, 14.649035], [121.086723, 14.648983], [121.08676, 14.648974], [121.086801, 14.64894], [121.086816, 14.648907], [121.086829, 14.648854], [121.086846, 14.648813], [121.086868, 14.648782], [121.086917, 14.648735], [121.087047, 14.648608], [121.087118, 14.648566], [121.087202, 14.648545], [121.087355, 14.648504], [121.087424, 14.648472], [121.087455, 14.648446], [121.087474, 14.648407], [121.087489, 14.648327], [121.0875, 14.648279], [121.087506, 14.648228], [121.087509, 14.648092], [121.087513, 14.647982], [121.087532, 14.647898], [121.087581, 14.647761], [121.087556, 14.647751], [121.087324, 14.647647], [121.087284, 14.64763], [121.087251, 14.647608], [121.08723, 14.647572], [121.087105, 14.647193], [121.087144, 14.647016], [121.087308, 14.64647], [121.087299, 14.646449], [121.08757, 14.645769], [121.087709, 14.644823], [121.087115, 14.644703], [121.086923, 14.644664], [121.086403, 14.644559], [121.085778, 14.644433], [121.085721, 14.644415], [121.085686, 14.644398], [121.085658, 14.644372], [121.085417, 14.643681], [121.085065, 14.643599], [121.084893, 14.643572], [121.084825, 14.643566], [121.084751, 14.643567], [121.084661, 14.643583], [121.084634, 14.64359], [121.084512, 14.643622], [121.084178, 14.643732], [121.084138, 14.643741], [121.084073, 14.643753], [121.083701, 14.643834], [121.0837, 14.643833], [121.083675, 14.643738], [121.08362, 14.643557], [121.083582, 14.643568], [121.08331, 14.64366], [121.083289, 14.64388], [121.083252, 14.644285], [121.083228, 14.644535], [121.083192, 14.644805], [121.083168, 14.644989], [121.083114, 14.645225], [121.083037, 14.645466], [121.082965, 14.645727], [121.082864, 14.646047], [121.082843, 14.646084], [121.082815, 14.646131], [121.082725, 14.646136], [121.082679, 14.646146], [121.082633, 14.646174], [121.082502, 14.646253], [121.082344, 14.646364], [121.082144, 14.646539], [121.081993, 14.646647], [121.08182, 14.646747], [121.081268, 14.647074], [121.081241, 14.647081], [121.081205, 14.647077], [121.081147, 14.647068], [121.08105, 14.647048], [121.080947, 14.647028], [121.080772, 14.646991], [121.080689, 14.646965], [121.080585, 14.646929], [121.080504, 14.646895], [121.080441, 14.646859], [121.080379, 14.646816], [121.080316, 14.646753], [121.080196, 14.646625], [121.079929, 14.64634], [121.079686, 14.646075], [121.079487, 14.645848], [121.079284, 14.645593], [121.079056, 14.645327], [121.078942, 14.645223], [121.078867, 14.645162], [121.078789, 14.64511], [121.078694, 14.645055], [121.078607, 14.645016], [121.078508, 14.644978], [121.078423, 14.644951], [121.078315, 14.644929], [121.07821, 14.644917], [121.078095, 14.644911], [121.077997, 14.644911], [121.077865, 14.644927], [121.077759, 14.644951], [121.077677, 14.644974], [121.077578, 14.645014], [121.077504, 14.645045], [121.077423, 14.645088], [121.077324, 14.645156], [121.077241, 14.645214], [121.077164, 14.645282], [121.077, 14.645446], [121.076776, 14.645682], [121.076652, 14.645794], [121.076517, 14.645893], [121.076429, 14.645958], [121.07633, 14.646012], [121.076243, 14.646048], [121.076146, 14.646077], [121.076056, 14.646095], [121.075908, 14.646115], [121.075719, 14.646144], [121.075427, 14.646174], [121.07509, 14.64623], [121.074389, 14.646325], [121.074352, 14.647206], [121.074357, 14.647643], [121.074357, 14.647664], [121.074533, 14.647667], [121.074757, 14.647883], [121.074757, 14.64805], [121.07618, 14.649466], [121.076202, 14.649731], [121.076201, 14.650139], [121.076198, 14.650818], [121.076206, 14.65191], [121.076172, 14.652979], [121.074541, 14.652916], [121.074372, 14.652915], [121.074373, 14.653519], [121.074387, 14.654884], [121.074354, 14.657528], [121.074374, 14.657572], [121.074404, 14.657614], [121.074459, 14.65767], [121.074534, 14.657744], [121.074651, 14.657858], [121.074788, 14.657983], [121.075804, 14.658859], [121.076062, 14.659084], [121.076178, 14.659182], [121.076213, 14.659224], [121.076231, 14.659264], [121.07624, 14.659336], [121.076241, 14.659397], [121.076233, 14.659464], [121.076219, 14.659513], [121.076196, 14.659569], [121.076189, 14.659661], [121.076183, 14.659705], [121.076132, 14.659854], [121.075352, 14.661493], [121.075109, 14.662], [121.074821, 14.662465], [121.074414, 14.662981], [121.074291, 14.663105], [121.074327, 14.663155], [121.074366, 14.663199], [121.074413, 14.66324], [121.074458, 14.663271], [121.074511, 14.663302], [121.074554, 14.663325], [121.074605, 14.663347], [121.074647, 14.663363], [121.074695, 14.663376], [121.074762, 14.663391], [121.07484, 14.663408], [121.074944, 14.663427], [121.075003, 14.663437], [121.075226, 14.663467], [121.075468, 14.663501], [121.075569, 14.663516], [121.075751, 14.663531], [121.075918, 14.663547], [121.07599, 14.663554], [121.076152, 14.663552], [121.076413, 14.663545], [121.076574, 14.663545], [121.076675, 14.663547], [121.076739, 14.663552], [121.07683, 14.663572], [121.076869, 14.663585], [121.076975, 14.663618], [121.078768, 14.664285], [121.079145, 14.664433], [121.080999, 14.66521], [121.081059, 14.665231], [121.082296, 14.665729], [121.083506, 14.666178], [121.083553, 14.666196], [121.083546, 14.666224], [121.084202, 14.66648], [121.085292, 14.666909], [121.086716, 14.667436], [121.088375, 14.668048], [121.088429, 14.668081], [121.088483, 14.668097], [121.088568, 14.668115], [121.088636, 14.668133], [121.088703, 14.668146], [121.08877, 14.668159], [121.088845, 14.668166], [121.088917, 14.668179], [121.088971, 14.668187], [121.089023, 14.66821], [121.089064, 14.668254], [121.089087, 14.668288], [121.089327, 14.668706], [121.089365, 14.668689], [121.089408, 14.668669], [121.089433, 14.668655], [121.089462, 14.668729], [121.089465, 14.668765], [121.089469, 14.668782], [121.089515, 14.668807], [121.089568, 14.668786], [121.089606, 14.668786], [121.089631, 14.6688], [121.089663, 14.668814], [121.089992, 14.668719], [121.090271, 14.668623], [121.090327, 14.66862], [121.090451, 14.668602], [121.090652, 14.668461], [121.090741, 14.668355], [121.090868, 14.668228], [121.090984, 14.668153], [121.091048, 14.668139], [121.091094, 14.668111], [121.091126, 14.668065], [121.091161, 14.668058], [121.091274, 14.66815], [121.091317, 14.668167], [121.091377, 14.668178], [121.091409, 14.668185], [121.091437, 14.66822], [121.091511, 14.668263], [121.091592, 14.668298], [121.091812, 14.668527], [121.09185, 14.668567], [121.091888, 14.668573], [121.092278, 14.66862], [121.092356, 14.668683], [121.092433, 14.66875], [121.092472, 14.668803], [121.092543, 14.668878], [121.092582, 14.668945], [121.092656, 14.669083], [121.092822, 14.668871]]]}, "properties": {"pcode": "PH1307404077", "name": "Pansol", "muni": "Quezon City", "lat": 14.656361, "lon": 121.081499}}, {"type": "Feature", "geometry": {"type": "Polygon", "coordinates": [[[121.057573, 14.647134], [121.057658, 14.647055], [121.057731, 14.646985], [121.057833, 14.646902], [121.057924, 14.646843], [121.058052, 14.64676], [121.058175, 14.646699], [121.058322, 14.646632], [121.058633, 14.646527], [121.059047, 14.646404], [121.059075, 14.64646], [121.059099, 14.646506], [121.059127, 14.646546], [121.059154, 14.646586], [121.059183, 14.646622], [121.05921, 14.64665], [121.059238, 14.646676], [121.059268, 14.646702], [121.05929, 14.64672], [121.059336, 14.64675], [121.05939, 14.646781], [121.059426, 14.646797], [121.059457, 14.646811], [121.059496, 14.646823], [121.05955, 14.646837], [121.059576, 14.646841], [121.059604, 14.646844], [121.059671, 14.646849], [121.059737, 14.646852], [121.059785, 14.646854], [121.059934, 14.646853], [121.060664, 14.646841], [121.060685, 14.646837], [121.060702, 14.646832], [121.06072, 14.646827], [121.060736, 14.64682], [121.060757, 14.646813], [121.060774, 14.646802], [121.06081, 14.646803], [121.061149, 14.646815], [121.06115, 14.646795], [121.061151, 14.646772], [121.061178, 14.646372], [121.061183, 14.646304], [121.061194, 14.646137], [121.061244, 14.645478], [121.06126, 14.645281], [121.061273, 14.645024], [121.061284, 14.644933], [121.061294, 14.644829], [121.061311, 14.644667], [121.061318, 14.64461], [121.061326, 14.644454], [121.061349, 14.644276], [121.061353, 14.644257], [121.061354, 14.64424], [121.061355, 14.644224], [121.06137, 14.644011], [121.061482, 14.642904], [121.061112, 14.642861], [121.061072, 14.642857], [121.061069, 14.642898], [121.06044, 14.642867], [121.059861, 14.64284], [121.059901, 14.642186], [121.059941, 14.641635], [121.059986, 14.641084], [121.059425, 14.641042], [121.058801, 14.641005], [121.058177, 14.640954], [121.058128, 14.64151], [121.058088, 14.642061], [121.058038, 14.642712], [121.058004, 14.643053], [121.057982, 14.643155], [121.057969, 14.643217], [121.057948, 14.643281], [121.057924, 14.643346], [121.057686, 14.643899], [121.057482, 14.644433], [121.057396, 14.644633], [121.057346, 14.644777], [121.05731, 14.64491], [121.057299, 14.644979], [121.057284, 14.645089], [121.057273, 14.645211], [121.057264, 14.64536], [121.057258, 14.645521], [121.057253, 14.645765], [121.057252, 14.646107], [121.057253, 14.646683], [121.057258, 14.64675], [121.057263, 14.646788], [121.057273, 14.64683], [121.057286, 14.646872], [121.057307, 14.646918], [121.057321, 14.646953], [121.057342, 14.64699], [121.057368, 14.647027], [121.057403, 14.647074], [121.057459, 14.64716], [121.057494, 14.64722], [121.057573, 14.647134]]]}, "properties": {"pcode": "PH1307404122", "name": "Teachers Village East", "muni": "Quezon City", "lat": 14.644118, "lon": 121.059483}}, {"type": "Feature", "geometry": {"type": "Polygon", "coordinates": [[[121.073741, 14.66348], [121.073871, 14.6634], [121.073922, 14.663361], [121.073973, 14.663316], [121.07402, 14.663276], [121.074066, 14.663228], [121.074245, 14.663019], [121.074264, 14.66306], [121.074291, 14.663105], [121.074414, 14.662981], [121.074821, 14.662465], [121.075109, 14.662], [121.075352, 14.661493], [121.076132, 14.659854], [121.076183, 14.659705], [121.076189, 14.659661], [121.076196, 14.659569], [121.076219, 14.659513], [121.076233, 14.659464], [121.076241, 14.659397], [121.07624, 14.659336], [121.076231, 14.659264], [121.076213, 14.659224], [121.076178, 14.659182], [121.076062, 14.659084], [121.075804, 14.658859], [121.074788, 14.657983], [121.074651, 14.657858], [121.074534, 14.657744], [121.074459, 14.65767], [121.074404, 14.657614], [121.074374, 14.657572], [121.074354, 14.657528], [121.074387, 14.654884], [121.074373, 14.653519], [121.074372, 14.652915], [121.074541, 14.652916], [121.076172, 14.652979], [121.076206, 14.65191], [121.076198, 14.650818], [121.076201, 14.650139], [121.076202, 14.649731], [121.07618, 14.649466], [121.074757, 14.64805], [121.074757, 14.647883], [121.074533, 14.647667], [121.074357, 14.647664], [121.074357, 14.647643], [121.074352, 14.647206], [121.074194, 14.647099], [121.074043, 14.647023], [121.07402, 14.647007], [121.073995, 14.646978], [121.073967, 14.646946], [121.0739, 14.646881], [121.073794, 14.646801], [121.07359, 14.646635], [121.073572, 14.646619], [121.073404, 14.646461], [121.073074, 14.646155], [121.072748, 14.645841], [121.072652, 14.645745], [121.072131, 14.645243], [121.071909, 14.645026], [121.071507, 14.644624], [121.071264, 14.644399], [121.071214, 14.64435], [121.071085, 14.644267], [121.071065, 14.644252], [121.071033, 14.64422], [121.071138, 14.644124], [121.070928, 14.643909], [121.070673, 14.643671], [121.070203, 14.643249], [121.069713, 14.642764], [121.068703, 14.641753], [121.06853, 14.641632], [121.068476, 14.641687], [121.068212, 14.641452], [121.068158, 14.641509], [121.067579, 14.64094], [121.067564, 14.640925], [121.067513, 14.640979], [121.067491, 14.640962], [121.06742, 14.640902], [121.067348, 14.640843], [121.067316, 14.640769], [121.067219, 14.64066], [121.067184, 14.64063], [121.06717, 14.640602], [121.067021, 14.64049], [121.066967, 14.640444], [121.066948, 14.640449], [121.066887, 14.6404], [121.066704, 14.64022], [121.066506, 14.640053], [121.066329, 14.640264], [121.0661, 14.640055], [121.065952, 14.639913], [121.065837, 14.639795], [121.065788, 14.63973], [121.065734, 14.639686], [121.065079, 14.63918], [121.065091, 14.639103], [121.065071, 14.639093], [121.064969, 14.638993], [121.064734, 14.638812], [121.064565, 14.638984], [121.064396, 14.639181], [121.064255, 14.639322], [121.064091, 14.639493], [121.064064, 14.639521], [121.064025, 14.639479], [121.063965, 14.639426], [121.06391, 14.639383], [121.06387, 14.63936], [121.063801, 14.639324], [121.063675, 14.63926], [121.063572, 14.639214], [121.063506, 14.639191], [121.063451, 14.639172], [121.063383, 14.639156], [121.063316, 14.639147], [121.063255, 14.639144], [121.063049, 14.639136], [121.062449, 14.639103], [121.062344, 14.640191], [121.062321, 14.640497], [121.063207, 14.640746], [121.063231, 14.640752], [121.063255, 14.640761], [121.06332, 14.640786], [121.063372, 14.64082], [121.063389, 14.640836], [121.063411, 14.640874], [121.06342, 14.640904], [121.063431, 14.640943], [121.063433, 14.640978], [121.063434, 14.641005], [121.06343, 14.641029], [121.063419, 14.641061], [121.063396, 14.641102], [121.063334, 14.641195], [121.063128, 14.641458], [121.063015, 14.641625], [121.062955, 14.641713], [121.062816, 14.641945], [121.062644, 14.642234], [121.06306, 14.642534], [121.063074, 14.642543], [121.063708, 14.642999], [121.064147, 14.643315], [121.064238, 14.643381], [121.064301, 14.643436], [121.064344, 14.643483], [121.064382, 14.643524], [121.064408, 14.64356], [121.06443, 14.643594], [121.064452, 14.643639], [121.064467, 14.643686], [121.064478, 14.643724], [121.064492, 14.64377], [121.064497, 14.643797], [121.064505, 14.643846], [121.064529, 14.644382], [121.064536, 14.644489], [121.064575, 14.645098], [121.06459, 14.645618], [121.064617, 14.646299], [121.06463, 14.646687], [121.064636, 14.646911], [121.064662, 14.647606], [121.064663, 14.647638], [121.064448, 14.647625], [121.064364, 14.647634], [121.064279, 14.647652], [121.06423, 14.647659], [121.064189, 14.647664], [121.064154, 14.647668], [121.064093, 14.647669], [121.064043, 14.647669], [121.063942, 14.647665], [121.06386, 14.647658], [121.063774, 14.647648], [121.063659, 14.647631], [121.06355, 14.647611], [121.063443, 14.647586], [121.063258, 14.647537], [121.062663, 14.647376], [121.062323, 14.647293], [121.062166, 14.64725], [121.062044, 14.647215], [121.061948, 14.647191], [121.06183, 14.64716], [121.061671, 14.647125], [121.061525, 14.6471], [121.061393, 14.647083], [121.061278, 14.647073], [121.06114, 14.647065], [121.061141, 14.647014], [121.06115, 14.646831], [121.061149, 14.646815], [121.06081, 14.646803], [121.060774, 14.646802], [121.060757, 14.646813], [121.060736, 14.64682], [121.06072, 14.646827], [121.060702, 14.646832], [121.060685, 14.646837], [121.060664, 14.646841], [121.059934, 14.646853], [121.059785, 14.646854], [121.05978, 14.646896], [121.059757, 14.647056], [121.059724, 14.647184], [121.059644, 14.647194], [121.059644, 14.647279], [121.059638, 14.647435], [121.059654, 14.647455], [121.059635, 14.647625], [121.059514, 14.648177], [121.059535, 14.648256], [121.059488, 14.648427], [121.059446, 14.64844], [121.059362, 14.648821], [121.059232, 14.649473], [121.05916, 14.649783], [121.059107, 14.649953], [121.059055, 14.650097], [121.058912, 14.650431], [121.058786, 14.650704], [121.058627, 14.651035], [121.058565, 14.65115], [121.058799, 14.651318], [121.058702, 14.651415], [121.058648, 14.651474], [121.058602, 14.651551], [121.058273, 14.651816], [121.05823, 14.651829], [121.058176, 14.652087], [121.0581, 14.652388], [121.058045, 14.652394], [121.058021, 14.652535], [121.057921, 14.653075], [121.057907, 14.653246], [121.0579, 14.65328], [121.057762, 14.65326], [121.057714, 14.653255], [121.057637, 14.653912], [121.057636, 14.65392], [121.057651, 14.653919], [121.057681, 14.653918], [121.057717, 14.653925], [121.057751, 14.653939], [121.057783, 14.653954], [121.057819, 14.653963], [121.057859, 14.653968], [121.057894, 14.653972], [121.057932, 14.653986], [121.057963, 14.654011], [121.058022, 14.654046], [121.058017, 14.654054], [121.057969, 14.654157], [121.057865, 14.654129], [121.057779, 14.654121], [121.057693, 14.654119], [121.05762, 14.65413], [121.057595, 14.654148], [121.057578, 14.654261], [121.056723, 14.654245], [121.056704, 14.654245], [121.056665, 14.654313], [121.05649, 14.654633], [121.056426, 14.654621], [121.055879, 14.654508], [121.054896, 14.654292], [121.054231, 14.65415], [121.054075, 14.654114], [121.053984, 14.654084], [121.053843, 14.654034], [121.053684, 14.653973], [121.053064, 14.653762], [121.05265, 14.653504], [121.052531, 14.653703], [121.05251, 14.65373], [121.05245, 14.653875], [121.052445, 14.653941], [121.05244, 14.654045], [121.05244, 14.654123], [121.05243, 14.654237], [121.052424, 14.654292], [121.052414, 14.654328], [121.052403, 14.654355], [121.052391, 14.654385], [121.052369, 14.654411], [121.052344, 14.654432], [121.052313, 14.654446], [121.052292, 14.654459], [121.052271, 14.654465], [121.052242, 14.654473], [121.052202, 14.654474], [121.052157, 14.654481], [121.052006, 14.654496], [121.051889, 14.654515], [121.051695, 14.654573], [121.051537, 14.654623], [121.051389, 14.654672], [121.051321, 14.654704], [121.051284, 14.654739], [121.051237, 14.654793], [121.051199, 14.654838], [121.051138, 14.654938], [121.051073, 14.655039], [121.050968, 14.655191], [121.050902, 14.655261], [121.050801, 14.65539], [121.050708, 14.655496], [121.050654, 14.655559], [121.050601, 14.655637], [121.050558, 14.655696], [121.050445, 14.655835], [121.050368, 14.655903], [121.050265, 14.655966], [121.050208, 14.655992], [121.050171, 14.656018], [121.05015, 14.656032], [121.050119, 14.656046], [121.050094, 14.65605], [121.049999, 14.656087], [121.049839, 14.656146], [121.049761, 14.656187], [121.049632, 14.656255], [121.049441, 14.656364], [121.049357, 14.656414], [121.049309, 14.656451], [121.04909, 14.656631], [121.050916, 14.659165], [121.050958, 14.659145], [121.051081, 14.659318], [121.051124, 14.659388], [121.051115, 14.65942], [121.051089, 14.659475], [121.051071, 14.659508], [121.051042, 14.659541], [121.051008, 14.659566], [121.05097, 14.659592], [121.050931, 14.659615], [121.050878, 14.659641], [121.050857, 14.659602], [121.050358, 14.659775], [121.05019, 14.659864], [121.050134, 14.659901], [121.050121, 14.659882], [121.050091, 14.659901], [121.049229, 14.660424], [121.049205, 14.660434], [121.049185, 14.660435], [121.049177, 14.660481], [121.049044, 14.660936], [121.049012, 14.660962], [121.048835, 14.660974], [121.048349, 14.660918], [121.048201, 14.660975], [121.048721, 14.662056], [121.048746, 14.662128], [121.049058, 14.662122], [121.049764, 14.662122], [121.050123, 14.662115], [121.050603, 14.662107], [121.051044, 14.662094], [121.051453, 14.662082], [121.051738, 14.662074], [121.052552, 14.662049], [121.053411, 14.662029], [121.054096, 14.662015], [121.054879, 14.661991], [121.055824, 14.661981], [121.057304, 14.661946], [121.058036, 14.661926], [121.058189, 14.661922], [121.058992, 14.661905], [121.059415, 14.661895], [121.059753, 14.661885], [121.060018, 14.661878], [121.06046, 14.661866], [121.060819, 14.661841], [121.061022, 14.661824], [121.061199, 14.661811], [121.06153, 14.661785], [121.06279, 14.661741], [121.06348, 14.661761], [121.064187, 14.661786], [121.06466, 14.661804], [121.064888, 14.661838], [121.065241, 14.661935], [121.065398, 14.66198], [121.066039, 14.662347], [121.066392, 14.662353], [121.066765, 14.662395], [121.068702, 14.662652], [121.07163, 14.66306], [121.071649, 14.663062], [121.071669, 14.663064], [121.073004, 14.663239], [121.073531, 14.663309], [121.073672, 14.663484], [121.073687, 14.663508], [121.073741, 14.66348]]]}, "properties": {"pcode": "PH1307404124", "name": "U.P. Campus", "muni": "Quezon City", "lat": 14.651234, "lon": 121.067442}}, {"type": "Feature", "geometry": {"type": "Polygon", "coordinates": [[[121.055278, 14.652318], [121.055342, 14.652198], [121.055405, 14.652107], [121.055503, 14.651955], [121.055675, 14.651929], [121.05578, 14.651918], [121.05585, 14.651922], [121.055997, 14.651916], [121.056079, 14.651908], [121.05616, 14.651918], [121.056335, 14.651968], [121.056456, 14.651988], [121.056575, 14.652006], [121.056726, 14.652037], [121.056764, 14.652045], [121.056796, 14.652039], [121.056845, 14.65203], [121.057009, 14.652033], [121.057026, 14.652036], [121.057044, 14.652039], [121.05707, 14.652047], [121.05712, 14.652051], [121.057177, 14.652047], [121.05736, 14.652012], [121.057525, 14.651972], [121.057682, 14.65191], [121.057819, 14.651853], [121.057923, 14.65179], [121.058011, 14.65173], [121.058079, 14.651682], [121.058158, 14.651621], [121.058229, 14.651566], [121.058293, 14.651504], [121.058358, 14.651438], [121.058423, 14.651369], [121.058472, 14.651296], [121.058517, 14.65123], [121.058565, 14.65115], [121.058627, 14.651035], [121.058786, 14.650704], [121.058912, 14.650431], [121.059055, 14.650097], [121.059107, 14.649953], [121.05916, 14.649783], [121.059232, 14.649473], [121.059362, 14.648821], [121.059446, 14.64844], [121.059488, 14.648427], [121.059535, 14.648256], [121.059514, 14.648177], [121.059635, 14.647625], [121.059654, 14.647455], [121.059638, 14.647435], [121.059644, 14.647279], [121.059644, 14.647194], [121.059724, 14.647184], [121.059757, 14.647056], [121.05978, 14.646896], [121.059785, 14.646854], [121.059737, 14.646852], [121.059671, 14.646849], [121.059604, 14.646844], [121.059576, 14.646841], [121.05955, 14.646837], [121.059496, 14.646823], [121.059457, 14.646811], [121.059426, 14.646797], [121.05939, 14.646781], [121.059336, 14.64675], [121.05929, 14.64672], [121.059268, 14.646702], [121.059238, 14.646676], [121.05921, 14.64665], [121.059183, 14.646622], [121.059154, 14.646586], [121.059127, 14.646546], [121.059099, 14.646506], [121.059075, 14.64646], [121.059047, 14.646404], [121.058633, 14.646527], [121.058322, 14.646632], [121.058175, 14.646699], [121.058052, 14.64676], [121.057924, 14.646843], [121.057833, 14.646902], [121.057731, 14.646985], [121.057658, 14.647055], [121.057573, 14.647134], [121.057494, 14.64722], [121.057459, 14.64716], [121.057403, 14.647074], [121.057368, 14.647027], [121.057342, 14.64699], [121.057321, 14.646953], [121.057307, 14.646918], [121.057286, 14.646872], [121.057273, 14.64683], [121.057263, 14.646788], [121.057258, 14.64675], [121.057253, 14.646683], [121.057252, 14.646107], [121.057131, 14.646095], [121.057011, 14.646084], [121.056738, 14.646047], [121.056523, 14.646017], [121.056334, 14.645989], [121.056158, 14.645959], [121.056031, 14.645933], [121.055923, 14.645908], [121.05579, 14.645858], [121.055648, 14.645804], [121.055554, 14.645768], [121.055451, 14.645721], [121.055358, 14.645675], [121.055083, 14.646226], [121.054574, 14.645953], [121.054017, 14.645654], [121.05386, 14.645939], [121.053739, 14.64614], [121.053634, 14.646299], [121.053393, 14.646684], [121.053088, 14.647162], [121.052849, 14.647516], [121.053009, 14.647655], [121.053106, 14.647749], [121.05322, 14.647875], [121.053299, 14.647978], [121.053406, 14.648128], [121.05348, 14.648241], [121.053568, 14.648372], [121.053641, 14.648486], [121.053716, 14.648621], [121.053815, 14.648842], [121.053896, 14.649032], [121.053963, 14.6492], [121.054027, 14.649368], [121.054078, 14.649525], [121.054132, 14.6497], [121.054182, 14.649918], [121.054204, 14.650055], [121.053578, 14.650111], [121.053595, 14.650334], [121.053612, 14.650653], [121.053604, 14.650951], [121.053573, 14.651356], [121.053544, 14.651614], [121.053711, 14.651638], [121.053827, 14.651652], [121.053884, 14.651659], [121.054054, 14.651681], [121.054181, 14.65169], [121.054248, 14.651694], [121.054327, 14.651694], [121.0544, 14.65169], [121.054483, 14.651685], [121.054585, 14.65168], [121.054699, 14.651674], [121.054836, 14.651659], [121.054964, 14.651647], [121.055055, 14.651636], [121.055105, 14.65163], [121.055107, 14.651667], [121.055117, 14.651992], [121.05513, 14.652378], [121.055147, 14.652384], [121.055177, 14.652392], [121.055246, 14.652402], [121.055278, 14.652318]]]}, "properties": {"pcode": "PH1307404125", "name": "U.P. Village", "muni": "Quezon City", "lat": 14.648937, "lon": 121.056597}}]}